House Number,Street Name,Community,Zip Code,Unit Type,Unit,Floor Type,Floor,Building Type,Building,DA/PSA,OVALS Address ID,Primary_Term_Address,FAC_ADDR,Working TN Status
1780,HAMMOCK BLVD,COCNUT CRK,33063,UNIT,108,,,,,610705,000006OS8Z,1798 TAMARIND LN,1780 HAMMOCK BLVD UNIT 108,
1780,HAMMOCK BLVD,COCNUT CRK,33063,UNIT,215,,,,,610705,000006OS8P,1798 TAMARIND LN,1780 HAMMOCK BLVD UNIT 215,
1800,HAMMOCK BLVD,COCNUT CRK,33063,,,,,,,610705,000006OTVO,1800 HAMMOCK BLVD BLDG 44,1800 HAMMOCK BLVD,
1800,HAMMOCK BLVD,COCNUT CRK,33063,,,,,BLDG,CLUBHSE,610705,00001R7F5Q,1800 HAMMOCK BLVD BLDG 44,1800 HAMMOCK BLVD     BLDG CLUBHSE,
1802,HAMMOCK BLVD,COCNUT CRK,33063,,,,,,,610705,000006OWMS,1800 HAMMOCK BLVD BLDG 44,1802 HAMMOCK BLVD,
1804,HAMMOCK BLVD,COCNUT CRK,33063,,,,,,,610705,000006OTVE,1800 HAMMOCK BLVD BLDG 44,1804 HAMMOCK BLVD,
1806,HAMMOCK BLVD,COCNUT CRK,33063,,,,,,,610705,000006OPZQ,1800 HAMMOCK BLVD BLDG 44,1806 HAMMOCK BLVD,
1808,HAMMOCK BLVD,COCNUT CRK,33063,,,,,,,610705,000006OUYV,1800 HAMMOCK BLVD BLDG 44,1808 HAMMOCK BLVD,
1810,HAMMOCK BLVD,COCNUT CRK,33063,,,,,,,610705,000006OW9M,1800 HAMMOCK BLVD BLDG 44,1810 HAMMOCK BLVD,
1812,HAMMOCK BLVD,COCNUT CRK,33063,,,,,,,610705,000006OQE4,1800 HAMMOCK BLVD BLDG 44,1812 HAMMOCK BLVD,
1814,HAMMOCK BLVD,COCNUT CRK,33063,APT,H-1,,,,,610705,000006OW5O,1800 HAMMOCK BLVD BLDG 44,1814 HAMMOCK BLVD APT H-1,
1816,HAMMOCK BLVD,COCNUT CRK,33063,,,,,,,610705,000006ORNY,1800 HAMMOCK BLVD BLDG 44,1816 HAMMOCK BLVD,
1818,HAMMOCK BLVD,COCNUT CRK,33063,,,,,,,610705,000006OWTK,1800 HAMMOCK BLVD BLDG 44,1818 HAMMOCK BLVD,
1820,HAMMOCK BLVD,COCNUT CRK,33063,,,,,,,610705,000006OTIR,1800 HAMMOCK BLVD BLDG 44,1820 HAMMOCK BLVD,
1822,HAMMOCK BLVD,COCNUT CRK,33063,,,,,,,610705,000006OS75,1800 HAMMOCK BLVD BLDG 44,1822 HAMMOCK BLVD,Y
1824,HAMMOCK BLVD,COCNUT CRK,33063,,,,,,,610705,000006OTYM,1800 HAMMOCK BLVD BLDG 44,1824 HAMMOCK BLVD,
1826,HAMMOCK BLVD,COCNUT CRK,33063,,,,,,,610705,000006OR8K,1800 HAMMOCK BLVD BLDG 44,1826 HAMMOCK BLVD,
1828,HAMMOCK BLVD,COCNUT CRK,33063,,,,,,,610705,000006OT5N,1800 HAMMOCK BLVD BLDG 44,1828 HAMMOCK BLVD,
1830,HAMMOCK BLVD,COCNUT CRK,33063,,,,,,,610705,000006OWSV,1800 HAMMOCK BLVD BLDG 44,1830 HAMMOCK BLVD,
1832,HAMMOCK BLVD,COCNUT CRK,33063,,,,,,,610705,000006OS77,1800 HAMMOCK BLVD BLDG 44,1832 HAMMOCK BLVD,
1834,HAMMOCK BLVD,COCNUT CRK,33063,,,,,,,610705,000006OUWE,1800 HAMMOCK BLVD BLDG 44,1834 HAMMOCK BLVD,
1836,HAMMOCK BLVD,COCNUT CRK,33063,,,,,,,610705,000006OUII,1800 HAMMOCK BLVD BLDG 44,1836 HAMMOCK BLVD,
1838,HAMMOCK BLVD,COCNUT CRK,33063,,,,,,,610705,000006ORT6,1800 HAMMOCK BLVD BLDG 44,1838 HAMMOCK BLVD,
1840,HAMMOCK BLVD,COCNUT CRK,33063,,,,,,,610705,000006OW8W,1800 HAMMOCK BLVD BLDG 44,1840 HAMMOCK BLVD,
1842,HAMMOCK BLVD,COCNUT CRK,33063,,,,,,,610705,000006OWQ4,1800 HAMMOCK BLVD BLDG 44,1842 HAMMOCK BLVD,
1844,HAMMOCK BLVD,COCNUT CRK,33063,,,,,,,610705,000006OS6C,1800 HAMMOCK BLVD BLDG 44,1844 HAMMOCK BLVD,
1846,HAMMOCK BLVD,COCNUT CRK,33063,,,,,,,610705,000006OR61,1800 HAMMOCK BLVD BLDG 44,1846 HAMMOCK BLVD,
1848,HAMMOCK BLVD,COCNUT CRK,33063,,,,,,,610705,000006OS23,1800 HAMMOCK BLVD BLDG 44,1848 HAMMOCK BLVD,
1850,HAMMOCK BLVD,COCNUT CRK,33063,APT,B4,,,,,610705,000006ORBP,1800 HAMMOCK BLVD BLDG 44,1850 HAMMOCK BLVD APT B4,
1850,HAMMOCK BLVD,COCNUT CRK,33063,,,,,,,610705,000006OQEO,1800 HAMMOCK BLVD BLDG 44,1850 HAMMOCK BLVD,
1852,HAMMOCK BLVD,COCNUT CRK,33063,,,,,,,610705,000006OQBX,1800 HAMMOCK BLVD BLDG 44,1852 HAMMOCK BLVD,
1854,HAMMOCK BLVD,COCNUT CRK,33063,,,,,,,610705,000006OW9X,1800 HAMMOCK BLVD BLDG 44,1854 HAMMOCK BLVD,
1856,HAMMOCK BLVD,COCNUT CRK,33063,,,,,,,610705,000006OTKY,1800 HAMMOCK BLVD BLDG 44,1856 HAMMOCK BLVD,
1858,HAMMOCK BLVD,COCNUT CRK,33063,,,,,,,610705,000006OW6G,1800 HAMMOCK BLVD BLDG 44,1858 HAMMOCK BLVD,
1860,HAMMOCK BLVD,COCNUT CRK,33063,,,,,,,610705,000006OT5C,1800 HAMMOCK BLVD BLDG 44,1860 HAMMOCK BLVD,
1862,HAMMOCK BLVD,COCNUT CRK,33063,,,,,,,610705,000006OU2W,1800 HAMMOCK BLVD BLDG 44,1862 HAMMOCK BLVD,
1864,HAMMOCK BLVD,COCNUT CRK,33063,,,,,,,610705,000006OUCA,1800 HAMMOCK BLVD BLDG 44,1864 HAMMOCK BLVD,
1700,HAMMOCK BLVD,COCNUT CRK,33063,,,,,,,610705,000006OS22,ENC 1798TAMLN-1601,1700 HAMMOCK BLVD,
1750,HAMMOCK BLVD,COCNUT CRK,33063,,,,,,,610705,000006OQ96,ENC 1798TAMLN-1601,1750 HAMMOCK BLVD,
1752,HAMMOCK BLVD,COCNUT CRK,33063,,,,,,,610705,000006OW6J,ENC 1798TAMLN-1601,1752 HAMMOCK BLVD,
1754,HAMMOCK BLVD,COCNUT CRK,33063,,,,,,,610705,000006ORMG,ENC 1798TAMLN-1601,1754 HAMMOCK BLVD,
1756,HAMMOCK BLVD,COCNUT CRK,33063,,,,,,,610705,000006OUCI,ENC 1798TAMLN-1601,1756 HAMMOCK BLVD,
1758,HAMMOCK BLVD,COCNUT CRK,33063,,,,,,,610705,000006OPY1,ENC 1798TAMLN-1601,1758 HAMMOCK BLVD,
1760,HAMMOCK BLVD,COCNUT CRK,33063,,,,,,,610705,000006OUFD,ENC 1798TAMLN-1601,1760 HAMMOCK BLVD,
1762,HAMMOCK BLVD,COCNUT CRK,33063,UNIT,408,,,,,610705,000025OXLS,ENC 1798TAMLN-1601,1762 HAMMOCK BLVD UNIT 408,
1762,HAMMOCK BLVD,COCNUT CRK,33063,,,,,,,610705,000006ORQR,ENC 1798TAMLN-1601,1762 HAMMOCK BLVD,
1791,SATINWOOD CIR,COCNUT CRK,33063,,,,,,,610705,000006ORC1,ENC 1798TAMLN-1601,1791 SATINWOOD CIR,
1793,SATINWOOD CIR,COCNUT CRK,33063,,,,,,,610705,000006OVGA,ENC 1798TAMLN-1601,1793 SATINWOOD CIR,
1795,SATINWOOD CIR,COCNUT CRK,33063,,,,,,,610705,000006OUSQ,ENC 1798TAMLN-1601,1795 SATINWOOD CIR,
1797,SATINWOOD CIR,COCNUT CRK,33063,,,,,,,610705,000006OR5M,ENC 1798TAMLN-1601,1797 SATINWOOD CIR,
1799,SATINWOOD CIR,COCNUT CRK,33063,,,,,,,610705,000006ORTQ,ENC 1798TAMLN-1601,1799 SATINWOOD CIR,
1801,SATINWOOD CIR,COCNUT CRK,33063,,,,,,,610705,000006OSZS,ENC 1798TAMLN-1601,1801 SATINWOOD CIR,
4744,SATINWOOD TR,COCNUT CRK,33063,,,,,,,610705,000006OTZN,ENC 1798TAMLN-1601,4744 SATINWOOD TR,
4746,SATINWOOD TR,COCNUT CRK,33063,,,,,,,610705,000006OT1R,ENC 1798TAMLN-1601,4746 SATINWOOD TR,
4748,SATINWOOD TR,COCNUT CRK,33063,,,,,,,610705,000006OTKW,ENC 1798TAMLN-1601,4748 SATINWOOD TR,
1793,MAPLEWOOD TR,COCNUT CRK,33063,,,,,,,610705,000006OWP0,ENC 1798TAMLN-1651,1793 MAPLEWOOD TR,
1795,MAPLEWOOD TR,COCNUT CRK,33063,,,,,,,610705,000006OVTD,ENC 1798TAMLN-1651,1795 MAPLEWOOD TR,
1797,MAPLEWOOD TR,COCNUT CRK,33063,,,,,,,610705,000006OR95,ENC 1798TAMLN-1651,1797 MAPLEWOOD TR,
1799,MAPLEWOOD TR,COCNUT CRK,33063,,,,,,,610705,000006OVFZ,ENC 1798TAMLN-1651,1799 MAPLEWOOD TR,
1801,MAPLEWOOD TR,COCNUT CRK,33063,,,,,,,610705,000006OTYG,ENC 1798TAMLN-1651,1801 MAPLEWOOD TR,
1794,SATINWOOD CIR,COCNUT CRK,33063,,,,,,,610705,000006OUJ0,ENC 1798TAMLN-1651,1794 SATINWOOD CIR,
1798,SATINWOOD CIR,COCNUT CRK,33063,,,,,,,610705,000006OVDX,ENC 1798TAMLN-1651,1798 SATINWOOD CIR,
1800,SATINWOOD CIR,COCNUT CRK,33063,,,,,,,610705,000006OSN2,ENC 1798TAMLN-1651,1800 SATINWOOD CIR,
4701,SATINWOOD TR,COCNUT CRK,33063,,,,,,,610705,000006ORBD,ENC 1798TAMLN-1651,4701 SATINWOOD TR,
4703,SATINWOOD TR,COCNUT CRK,33063,,,,,,,610705,000006OU28,ENC 1798TAMLN-1651,4703 SATINWOOD TR,
4705,SATINWOOD TR,COCNUT CRK,33063,,,,,,,610705,000006OUF0,ENC 1798TAMLN-1651,4705 SATINWOOD TR,
4707,SATINWOOD TR,COCNUT CRK,33063,,,,,,,610705,000006OT47,ENC 1798TAMLN-1651,4707 SATINWOOD TR,
4709,SATINWOOD TR,COCNUT CRK,33063,,,,,,,610705,000006ORSR,ENC 1798TAMLN-1651,4709 SATINWOOD TR,
4711,SATINWOOD TR,COCNUT CRK,33063,,,,,,,610705,000006OSMN,ENC 1798TAMLN-1651,4711 SATINWOOD TR,
4713,SATINWOOD TR,COCNUT CRK,33063,,,,,,,610705,000006OVFC,ENC 1798TAMLN-1651,4713 SATINWOOD TR,
4715,SATINWOOD TR,COCNUT CRK,33063,,,,,,,610705,000006OUCO,ENC 1798TAMLN-1651,4715 SATINWOOD TR,
4717,SATINWOOD TR,COCNUT CRK,33063,,,,,,,610705,000006OUSR,ENC 1798TAMLN-1701,4717 SATINWOOD TR,
4719,SATINWOOD TR,COCNUT CRK,33063,,,,,,,610705,000006OSM0,ENC 1798TAMLN-1701,4719 SATINWOOD TR,
4721,SATINWOOD TR,COCNUT CRK,33063,,,,,,,610705,000006OQ9U,ENC 1798TAMLN-1701,4721 SATINWOOD TR,
4723,SATINWOOD TR,COCNUT CRK,33063,,,,,,,610705,000006OTZI,ENC 1798TAMLN-1701,4723 SATINWOOD TR,
4725,SATINWOOD TR,COCNUT CRK,33063,,,,,,,610705,000006OQCL,ENC 1798TAMLN-1701,4725 SATINWOOD TR,
4727,SATINWOOD TR,COCNUT CRK,33063,,,,,,,610705,000006OVWU,ENC 1798TAMLN-1701,4727 SATINWOOD TR,
4729,SATINWOOD TR,COCNUT CRK,33063,,,,,,,610705,000006ORBK,ENC 1798TAMLN-1701,4729 SATINWOOD TR,
4731,SATINWOOD TR,COCNUT CRK,33063,,,,,,,610705,000006OT4K,ENC 1798TAMLN-1701,4731 SATINWOOD TR,
4733,SATINWOOD TR,COCNUT CRK,33063,,,,,,,610705,000006OW5J,ENC 1798TAMLN-1701,4733 SATINWOOD TR,
4735,SATINWOOD TR,COCNUT CRK,33063,,,,,,,610705,000006OUYE,ENC 1798TAMLN-1701,4735 SATINWOOD TR,
4737,SATINWOOD TR,COCNUT CRK,33063,,,,,,,610705,000006OTMP,ENC 1798TAMLN-1701,4737 SATINWOOD TR,
4739,SATINWOOD TR,COCNUT CRK,33063,,,,,,,610705,000006OVEX,ENC 1798TAMLN-1701,4739 SATINWOOD TR,
4741,SATINWOOD TR,COCNUT CRK,33063,,,,,,,610705,000006OQUZ,ENC 1798TAMLN-1701,4741 SATINWOOD TR,
4743,SATINWOOD TR,COCNUT CRK,33063,,,,,,,610705,000006OUSP,ENC 1798TAMLN-1701,4743 SATINWOOD TR,
4745,SATINWOOD TR,COCNUT CRK,33063,,,,,,,610705,000006OQ9R,ENC 1798TAMLN-1701,4745 SATINWOOD TR,
4747,SATINWOOD TR,COCNUT CRK,33063,,,,,,,610705,000006OQVQ,ENC 1798TAMLN-1701,4747 SATINWOOD TR,
4749,SATINWOOD TR,COCNUT CRK,33063,,,,,,,610705,000006OPX2,ENC 1798TAMLN-1701,4749 SATINWOOD TR,
1786,CEDAR DR,COCNUT CRK,33063,,,,,,,610705,000006OTMM,ENC 1798TAMLN-1751,1786 CEDAR DR,
1796,CEDAR DR,COCNUT CRK,33063,,,,,,,610705,000006OSAI,ENC 1798TAMLN-1751,1796 CEDAR DR,
1797,CEDAR DR,COCNUT CRK,33063,,,,,,,610705,000006OT57,ENC 1798TAMLN-1751,1797 CEDAR DR,
1799,CEDAR DR,COCNUT CRK,33063,,,,,,,610705,000006OUHO,ENC 1798TAMLN-1751,1799 CEDAR DR,
1801,CEDAR DR,COCNUT CRK,33063,,,,,,,610705,000006OSZO,ENC 1798TAMLN-1751,1801 CEDAR DR,
1794,MAPLEWOOD TR,COCNUT CRK,33063,,,,,,,610705,000006ORLL,ENC 1798TAMLN-1751,1794 MAPLEWOOD TR,
1796,MAPLEWOOD TR,COCNUT CRK,33063,,,,,,,610705,000006OPVG,ENC 1798TAMLN-1751,1796 MAPLEWOOD TR,
1798,MAPLEWOOD TR,COCNUT CRK,33063,,,,,,,610705,000006OWTB,ENC 1798TAMLN-1751,1798 MAPLEWOOD TR,
1800,MAPLEWOOD TR,COCNUT CRK,33063,,,,,,,610705,000006OS9I,ENC 1798TAMLN-1751,1800 MAPLEWOOD TR,
4700,SATINWOOD TR,COCNUT CRK,33063,,,,,,,610705,000006OTI7,ENC 1798TAMLN-1751,4700 SATINWOOD TR,Y
4702,SATINWOOD TR,COCNUT CRK,33063,,,,,,,610705,000006OSOP,ENC 1798TAMLN-1751,4702 SATINWOOD TR,
4704,SATINWOOD TR,COCNUT CRK,33063,,,,,,,610705,000006OSZH,ENC 1798TAMLN-1751,4704 SATINWOOD TR,
4706,SATINWOOD TR,COCNUT CRK,33063,,,,,,,610705,000006OTI1,ENC 1798TAMLN-1751,4706 SATINWOOD TR,
4708,SATINWOOD TR,COCNUT CRK,33063,,,,,,,610705,000006OSP8,ENC 1798TAMLN-1751,4708 SATINWOOD TR,
1836,TAMARIND LN,COCNUT CRK,33063,,,,,,,610705,000006OPT4,ENC 1798TAMLN-451,1836 TAMARIND LN,
1838,TAMARIND LN,COCNUT CRK,33063,,,,,,,610705,000006OT2O,ENC 1798TAMLN-451,1838 TAMARIND LN,
1840,TAMARIND LN,COCNUT CRK,33063,,,,,,,610705,000006OSIW,ENC 1798TAMLN-451,1840 TAMARIND LN,
1842,TAMARIND LN,COCNUT CRK,33063,,,,,,,610705,000006OS5Z,ENC 1798TAMLN-451,1842 TAMARIND LN,
1844,TAMARIND LN,COCNUT CRK,33063,,,,,,,610705,000006OVT5,ENC 1798TAMLN-451,1844 TAMARIND LN,
1846,TAMARIND LN,COCNUT CRK,33063,,,,,,,610705,000006OPZE,ENC 1798TAMLN-451,1846 TAMARIND LN,
1848,TAMARIND LN,COCNUT CRK,33063,,,,,,,610705,000006OQDA,ENC 1798TAMLN-451,1848 TAMARIND LN,
1850,TAMARIND LN,COCNUT CRK,33063,,,,,,,610705,000006OT55,ENC 1798TAMLN-451,1850 TAMARIND LN,
1852,TAMARIND LN,COCNUT CRK,33063,,,,,,,610705,000006OQUI,ENC 1798TAMLN-451,1852 TAMARIND LN,
1854,TAMARIND LN,COCNUT CRK,33063,,,,,,,610705,000006OVC1,ENC 1798TAMLN-451,1854 TAMARIND LN,
1856,TAMARIND LN,COCNUT CRK,33063,,,,,,,610705,000006OWQI,ENC 1798TAMLN-451,1856 TAMARIND LN,
1858,TAMARIND LN,COCNUT CRK,33063,,,,,,,610705,000006OU05,ENC 1798TAMLN-451,1858 TAMARIND LN,
4601,TAMARIND CIR,COCNUT CRK,33063,,,,,,,610705,000006OVVV,ENC 1798TAMLN-501,4601 TAMARIND CIR,
4603,TAMARIND CIR,COCNUT CRK,33063,,,,,,,610705,000006ORRY,ENC 1798TAMLN-501,4603 TAMARIND CIR,
4605,TAMARIND CIR,COCNUT CRK,33063,,,,,,,610705,000006OWMJ,ENC 1798TAMLN-501,4605 TAMARIND CIR,
4607,TAMARIND CIR,COCNUT CRK,33063,,,,,,,610705,000006OPXR,ENC 1798TAMLN-501,4607 TAMARIND CIR,
1851,TAMARIND LN,COCNUT CRK,33063,,,,,,,610705,000006OVSI,ENC 1798TAMLN-501,1851 TAMARIND LN,
1853,TAMARIND LN,COCNUT CRK,33063,,,,,,,610705,000006OUV7,ENC 1798TAMLN-501,1853 TAMARIND LN,
1855,TAMARIND LN,COCNUT CRK,33063,,,,,,,610705,000006OTIF,ENC 1798TAMLN-501,1855 TAMARIND LN,
1857,TAMARIND LN,COCNUT CRK,33063,UNIT,54,,,,,610705,000006OS8W,ENC 1798TAMLN-501,1857 TAMARIND LN UNIT 54,
1857,TAMARIND LN,COCNUT CRK,33063,,,,,,,610705,000006OV9I,ENC 1798TAMLN-501,1857 TAMARIND LN,
4600,TAMARIND CIR,COCNUT CRK,33063,,,,,,,610705,000006ORS0,ENC 1798TAMLN-551,4600 TAMARIND CIR,
4602,TAMARIND CIR,COCNUT CRK,33063,,,,,,,610705,000006OR4Y,ENC 1798TAMLN-551,4602 TAMARIND CIR,
4604,TAMARIND CIR,COCNUT CRK,33063,,,,,,,610705,000006OQX3,ENC 1798TAMLN-551,4604 TAMARIND CIR,
4606,TAMARIND CIR,COCNUT CRK,33063,,,,,,,610705,000006OUEV,ENC 1798TAMLN-551,4606 TAMARIND CIR,
4609,TAMARIND CIR,COCNUT CRK,33063,,,,,,,610705,000006OROF,ENC 1798TAMLN-551,4609 TAMARIND CIR,
4611,TAMARIND CIR,COCNUT CRK,33063,,,,,,,610705,000006OQEC,ENC 1798TAMLN-551,4611 TAMARIND CIR,
1807,TAMARIND LN,COCNUT CRK,33063,,,,,,,610705,000006ORCP,ENC 1798TAMLN-551,1807 TAMARIND LN,
1809,TAMARIND LN,COCNUT CRK,33063,,,,,,,610705,000006OWB7,ENC 1798TAMLN-551,1809 TAMARIND LN,
1811,TAMARIND LN,COCNUT CRK,33063,,,,,,,610705,000006OT21,ENC 1798TAMLN-551,1811 TAMARIND LN,
1813,TAMARIND LN,COCNUT CRK,33063,,,,,,,610705,000006OTJZ,ENC 1798TAMLN-551,1813 TAMARIND LN,
1815,TAMARIND LN,COCNUT CRK,33063,,,,,,,610705,000006OTLJ,ENC 1798TAMLN-551,1815 TAMARIND LN,
1817,TAMARIND LN,COCNUT CRK,33063,,,,,,,610705,000006OTEY,ENC 1798TAMLN-551,1817 TAMARIND LN,
1819,TAMARIND LN,COCNUT CRK,33063,,,,,,,610705,000006OS72,ENC 1798TAMLN-551,1819 TAMARIND LN,
1821,TAMARIND LN,COCNUT CRK,33063,,,,,,,610705,000006OROD,ENC 1798TAMLN-551,1821 TAMARIND LN,
1823,TAMARIND LN,COCNUT CRK,33063,,,,,,,610705,000006OW62,ENC 1798TAMLN-551,1823 TAMARIND LN,
1774,MAPLEWOOD CIR,COCNUT CRK,33063,,,,,,,610705,000006OWM4,ENC 1798TAMLN-601,1774 MAPLEWOOD CIR,
1776,MAPLEWOOD CIR,COCNUT CRK,33063,,,,,,,610705,000006OU15,ENC 1798TAMLN-601,1776 MAPLEWOOD CIR,
1778,MAPLEWOOD CIR,COCNUT CRK,33063,,,,,,,610705,000006OWQB,ENC 1798TAMLN-601,1778 MAPLEWOOD CIR,
1780,MAPLEWOOD CIR,COCNUT CRK,33063,,,,,,,610705,000006OR9R,ENC 1798TAMLN-601,1780 MAPLEWOOD CIR,
1798,TAMARIND LN,COCNUT CRK,33063,,,,,,,610705,000006OTFH,ENC 1798TAMLN-601,1798 TAMARIND LN,
1800,TAMARIND LN,COCNUT CRK,33063,,,,,,,610705,000006OUTH,ENC 1798TAMLN-601,1800 TAMARIND LN,
1802,TAMARIND LN,COCNUT CRK,33063,,,,,,,610705,000006OPWF,ENC 1798TAMLN-601,1802 TAMARIND LN,
1804,TAMARIND LN,COCNUT CRK,33063,,,,,,,610705,000006ORQY,ENC 1798TAMLN-601,1804 TAMARIND LN,
1806,TAMARIND LN,COCNUT CRK,33063,,,,,,,610705,000006OWSG,ENC 1798TAMLN-601,1806 TAMARIND LN,
1808,TAMARIND LN,COCNUT CRK,33063,,,,,,,610705,000006OR8Z,ENC 1798TAMLN-601,1808 TAMARIND LN,
1810,TAMARIND LN,COCNUT CRK,33063,,,,,,,610705,000006OS4T,ENC 1798TAMLN-601,1810 TAMARIND LN,
1812,TAMARIND LN,COCNUT CRK,33063,,,,,,,610705,000006OVD0,ENC 1798TAMLN-601,1812 TAMARIND LN,
1814,TAMARIND LN,COCNUT CRK,33063,,,,,,,610705,000006OWMR,ENC 1798TAMLN-601,1814 TAMARIND LN,
1816,TAMARIND LN,COCNUT CRK,33063,,,,,,,610705,000006OQX4,ENC 1798TAMLN-601,1816 TAMARIND LN,
1818,TAMARIND LN,COCNUT CRK,33063,,,,,,,610705,000006OUJN,ENC 1798TAMLN-601,1818 TAMARIND LN,
1820,TAMARIND LN,COCNUT CRK,33063,,,,,,,610705,000006OWPU,ENC 1798TAMLN-601,1820 TAMARIND LN,
1824,TAMARIND LN,COCNUT CRK,33063,,,,,,,610705,000006OUFA,ENC 1798TAMLN-601,1824 TAMARIND LN,
1826,TAMARIND LN,COCNUT CRK,33063,,,,,,,610705,000006OPXP,ENC 1798TAMLN-601,1826 TAMARIND LN,
1828,TAMARIND LN,COCNUT CRK,33063,,,,,,,610705,000006ORE1,ENC 1798TAMLN-601,1828 TAMARIND LN,
1830,TAMARIND LN,COCNUT CRK,33063,,,,,,,610705,000006OVFA,ENC 1798TAMLN-601,1830 TAMARIND LN,
1832,TAMARIND LN,COCNUT CRK,33063,,,,,,,610705,000006OQF6,ENC 1798TAMLN-601,1832 TAMARIND LN,
1834,TAMARIND LN,COCNUT CRK,33063,,,,,,,610705,000006OWQE,ENC 1798TAMLN-601,1834 TAMARIND LN,
1762,MAPLEWOOD CIR,COCNUT CRK,33063,,,,,,,610705,000006OUBU,ENC 1798TAMLN-651,1762 MAPLEWOOD CIR,
1764,MAPLEWOOD CIR,COCNUT CRK,33063,,,,,,,610705,000006OTGB,ENC 1798TAMLN-651,1764 MAPLEWOOD CIR,
1766,MAPLEWOOD CIR,COCNUT CRK,33063,,,,,,,610705,000006OT6B,ENC 1798TAMLN-651,1766 MAPLEWOOD CIR,
1768,MAPLEWOOD CIR,COCNUT CRK,33063,,,,,,,610705,000006OSPO,ENC 1798TAMLN-651,1768 MAPLEWOOD CIR,
1770,MAPLEWOOD CIR,COCNUT CRK,33063,,,,,,,610705,000006OQC0,ENC 1798TAMLN-651,1770 MAPLEWOOD CIR,
1772,MAPLEWOOD CIR,COCNUT CRK,33063,,,,,,,610705,000006OWA3,ENC 1798TAMLN-651,1772 MAPLEWOOD CIR,
1801,HAMMOCK BLVD,COCNUT CRK,33063,UNIT,CLUBHSE,,,,,610705,000006OQTG,ENC 1798TAMLN-801,1801 HAMMOCK BLVD UNIT CLUBHSE,
1801,HAMMOCK BLVD,COCNUT CRK,33063,,,,,BLDG,CLUBHSE,610705,000006OQTG,ENC 1798TAMLN-801,1801 HAMMOCK BLVD     BLDG CLUBHSE,
1801,HAMMOCK BLVD,COCNUT CRK,33063,,,,,BLDG,REC,610705,000006OQFT,ENC 1798TAMLN-801,1801 HAMMOCK BLVD     BLDG REC,
1400,NW 47TH AV,COCNUT CRK,33063,,,,,,,610705,000006OU03,F 1400 NW 47TH AV,1400 NW 47TH AV,
1410,NW 47TH AV,COCNUT CRK,33063,,,,,,,610705,000006OSKV,F 1400 NW 47TH AV,1410 NW 47TH AV,
1405,NW 49TH AV,COCNUT CRK,33063,,,,,,,610705,000006OS80,F 1405 NW 49TH AV,1405 NW 49TH AV,
1415,NW 49TH AV,COCNUT CRK,33063,,,,,,,610705,000006OVSB,F 1405 NW 49TH AV,1415 NW 49TH AV,
1413,NW 48TH TER,COCNUT CRK,33063,,,,,,,610705,000006OWOR,F 1413 NW 48TH TER,1413 NW 48TH TER,
1423,NW 48TH TER,COCNUT CRK,33063,,,,,,,610705,000006OVUF,F 1413 NW 48TH TER,1423 NW 48TH TER,
1414,NW 49TH AV,COCNUT CRK,33063,,,,,,,610705,000006ORUB,F 1414 NW 49TH AV,1414 NW 49TH AV,
1424,NW 49TH AV,COCNUT CRK,33063,,,,,,,610705,000006OR8O,F 1414 NW 49TH AV,1424 NW 49TH AV,
1420,NW 47TH AV,COCNUT CRK,33063,,,,,,,610705,000006ORTX,F 1420 NW 47TH AV,1420 NW 47TH AV,
1430,NW 47TH AV,COCNUT CRK,33063,,,,,,,610705,000006OTMH,F 1420 NW 47TH AV,1430 NW 47TH AV,
1421,NW 47TH AV,COCNUT CRK,33063,,,,,,,610705,000006OS7V,F 1421 NW 47TH AV,1421 NW 47TH AV,
1422,NW 47TH TER,COCNUT CRK,33063,,,,,,,610705,000006OQX7,F 1422 NW 47TH TER,1422 NW 47TH TER,
1425,NW 49TH AV,COCNUT CRK,33063,,,,,,,610705,000006OW94,F 1425 NW 49TH AV,1425 NW 49TH AV,
1435,NW 49TH AV,COCNUT CRK,33063,,,,,,,610705,000006OUYP,F 1425 NW 49TH AV,1435 NW 49TH AV,
1431,NW 47TH AV,COCNUT CRK,33063,,,,,,,610705,000006OPVI,F 1431 NW 47TH AV,1431 NW 47TH AV,
1432,NW 47TH TER,COCNUT CRK,33063,,,,,,,610705,000006ORPG,F 1432 NW 47TH TER,1432 NW 47TH TER,
1433,NW 48TH TER,COCNUT CRK,33063,,,,,,,610705,000006OPYI,F 1433.1 NW 48TH TER,1433 NW 48TH TER,
1443,NW 48TH TER,COCNUT CRK,33063,,,,,,,610705,000006OW6I,F 1433.1 NW 48TH TER,1443 NW 48TH TER,
1434,NW 49TH AV,COCNUT CRK,33063,,,,,,,610705,000006OTVX,F 1434 NW 49TH AV,1434 NW 49TH AV,
1444,NW 49TH AV,COCNUT CRK,33063,,,,,,,610705,000006OS9A,F 1434 NW 49TH AV,1444 NW 49TH AV,
1440,NW 47TH AV,COCNUT CRK,33063,,,,,,,610705,000006OVX5,F 1440 NW 47TH AV,1440 NW 47TH AV,
1450,NW 47TH AV,COCNUT CRK,33063,,,,,,,610705,000006OWA1,F 1440 NW 47TH AV,1450 NW 47TH AV,
1441,NW 47TH AV,COCNUT CRK,33063,,,,,,,610705,000006OPZ0,F 1441 NW 47TH AV,1441 NW 47TH AV,
1451,NW 47TH AV,COCNUT CRK,33063,,,,,,,610705,000006OQSO,F 1441 NW 47TH AV,1451 NW 47TH AV,
4753,NW 14TH DR,COCNUT CRK,33063,,,,,,,610705,000006OUWB,F 1442 NW 47TH TER,4753 NW 14TH DR,
1442,NW 47TH TER,COCNUT CRK,33063,,,,,,,610705,000006OU1Q,F 1442 NW 47TH TER,1442 NW 47TH TER,
1442,NW 48TH AV,COCNUT CRK,33063,,,,,,,610705,000006OQBS,F 1442 NW 48TH AV,1442 NW 48TH AV,
1452,NW 48TH AV,COCNUT CRK,33063,,,,,,,610705,000006OQWJ,F 1442 NW 48TH AV,1452 NW 48TH AV,
1443,NW 48TH AV,COCNUT CRK,33063,,,,,,,610705,000006OQGX,F 1443 NW 48TH AV,1443 NW 48TH AV,
1453,NW 48TH AV,COCNUT CRK,33063,,,,,,,610705,000006ORLO,F 1443 NW 48TH AV,1453 NW 48TH AV,
1445,NW 49TH AV,COCNUT CRK,33063,,,,,,,610705,000006OTZ3,F 1445 NW 49TH AV,1445 NW 49TH AV,
1454,NW 49TH AV,COCNUT CRK,33063,,,,,,,610705,000006OS64,F 1454 NW 49TH AV,1454 NW 49TH AV,
1464,NW 49TH AV,COCNUT CRK,33063,,,,,,,610705,000006OTVT,F 1454 NW 49TH AV,1464 NW 49TH AV,
1455,NW 49TH AV,COCNUT CRK,33063,,,,,,,610705,000006OR5O,F 1455 NW 49TH AV,1455 NW 49TH AV,
1460,NW 47TH AV,COCNUT CRK,33063,,,,,,,610705,000006OTIP,F 1460 NW 47TH AV,1460 NW 47TH AV,
1470,NW 47TH AV,COCNUT CRK,33063,,,,,,,610705,000006OVVU,F 1460 NW 47TH AV,1470 NW 47TH AV,
1505,NW 47TH AV,COCNUT CRK,33063,,,,,,,610705,000006OWNR,F 1460 NW 47TH AV,1505 NW 47TH AV,
1462,NW 48TH AV,COCNUT CRK,33063,,,,,,,610705,000006OQDG,F 1462 NW 48TH AV,1462 NW 48TH AV,
1465,NW 49TH AV,COCNUT CRK,33063,,,,,,,610705,000006OTZ6,F 1465 NW 49TH AV,1465 NW 49TH AV,
1475,NW 49TH AV,COCNUT CRK,33063,,,,,,,610705,000006OV95,F 1465 NW 49TH AV,1475 NW 49TH AV,Y
1800,NW 48TH TER,COCNUT CRK,33063,,,,,,,610705,000006OW8B,F 1808 NW 48TH TER,1800 NW 48TH TER,
1804,NW 48TH TER,COCNUT CRK,33063,,,,,,,610705,000006OUI7,F 1808 NW 48TH TER,1804 NW 48TH TER,
1808,NW 48TH TER,COCNUT CRK,33063,,,,,,,610705,000006OTJ4,F 1808 NW 48TH TER,1808 NW 48TH TER,
1812,NW 48TH TER,COCNUT CRK,33063,,,,,,,610705,000006OQSI,F 1808 NW 48TH TER,1812 NW 48TH TER,
1816,NW 48TH TER,COCNUT CRK,33063,,,,,,,610705,000006OW9G,F 1808 NW 48TH TER,1816 NW 48TH TER,
1801,NW 49TH AV,COCNUT CRK,33063,,,,,,,610705,000006OVWQ,F 1809 NW 49TH AV,1801 NW 49TH AV,
1805,NW 49TH AV,COCNUT CRK,33063,,,,,,,610705,000006OWC6,F 1809 NW 49TH AV,1805 NW 49TH AV,
1809,NW 49TH AV,COCNUT CRK,33063,,,,,,,610705,000006OS2G,F 1809 NW 49TH AV,1809 NW 49TH AV,
1813,NW 49TH AV,COCNUT CRK,33063,,,,,,,610705,000006OVFQ,F 1809 NW 49TH AV,1813 NW 49TH AV,
1836,NW 48TH TER,COCNUT CRK,33063,UNIT,GUARD SHK,,,,,610705,000006ORR5,F 1825 NW 49TH AV,1836 NW 48TH TER UNIT GUARD SHK,Y
1817,NW 49TH AV,COCNUT CRK,33063,,,,,,,610705,000006OU34,F 1825 NW 49TH AV,1817 NW 49TH AV,
1821,NW 49TH AV,COCNUT CRK,33063,,,,,,,610705,000006ORT1,F 1825 NW 49TH AV,1821 NW 49TH AV,
1825,NW 49TH AV,COCNUT CRK,33063,,,,,,,610705,000006OS8I,F 1825 NW 49TH AV,1825 NW 49TH AV,
1829,NW 49TH AV,COCNUT CRK,33063,,,,,,,610705,000006OVBK,F 1825 NW 49TH AV,1829 NW 49TH AV,
1820,NW 48TH TER,COCNUT CRK,33063,,,,,,,610705,000006OPT0,F 1828 NW 48TH TER,1820 NW 48TH TER,
1824,NW 48TH TER,COCNUT CRK,33063,,,,,,,610705,000006OPWE,F 1828 NW 48TH TER,1824 NW 48TH TER,
1828,NW 48TH TER,COCNUT CRK,33063,,,,,,,610705,000006ORT2,F 1828 NW 48TH TER,1828 NW 48TH TER,
1832,NW 48TH TER,COCNUT CRK,33063,,,,,,,610705,000006ORDN,F 1828 NW 48TH TER,1832 NW 48TH TER,
1836,NW 48TH TER,COCNUT CRK,33063,,,,,,,610705,000006ORAH,F 1828 NW 48TH TER,1836 NW 48TH TER,
1920,NW 48TH TER,COCNUT CRK,33063,,,,,,,610705,000006OVRS,F 1828 NW 48TH TER,1920 NW 48TH TER,
4852,NW 19TH ST,COCNUT CRK,33063,,,,,,,610705,000006OVS3,F 1901 NW 49TH AV,4852 NW 19TH ST,
4856,NW 19TH ST,COCNUT CRK,33063,,,,,,,610705,000006OVWS,F 1901 NW 49TH AV,4856 NW 19TH ST,
1901,NW 49TH AV,COCNUT CRK,33063,,,,,,,610705,000006OUJR,F 1901 NW 49TH AV,1901 NW 49TH AV,
1905,NW 49TH AV,COCNUT CRK,33063,,,,,,,610705,000006OVPE,F 1901 NW 49TH AV,1905 NW 49TH AV,
1909,NW 49TH AV,COCNUT CRK,33063,,,,,,,610705,000006OUWD,F 1917 NW 49TH AV,1909 NW 49TH AV,
1913,NW 49TH AV,COCNUT CRK,33063,,,,,,,610705,000006OUYY,F 1917 NW 49TH AV,1913 NW 49TH AV,
1917,NW 49TH AV,COCNUT CRK,33063,,,,,,,610705,000006OUXN,F 1917 NW 49TH AV,1917 NW 49TH AV,
1921,NW 49TH AV,COCNUT CRK,33063,,,,,,,610705,000006OU0B,F 1917 NW 49TH AV,1921 NW 49TH AV,
1925,NW 49TH AV,COCNUT CRK,33063,,,,,,,610705,000006OTF0,F 1917 NW 49TH AV,1925 NW 49TH AV,
1910,NW 48TH AV,COCNUT CRK,33063,,,,,,,610705,000006OWAU,F 1918 NW 48TH AV,1910 NW 48TH AV,
1914,NW 48TH AV,COCNUT CRK,33063,,,,,,,610705,000006OSYP,F 1918 NW 48TH AV,1914 NW 48TH AV,
1918,NW 48TH AV,COCNUT CRK,33063,,,,,,,610705,000006OS76,F 1918 NW 48TH AV,1918 NW 48TH AV,Y
1922,NW 48TH AV,COCNUT CRK,33063,,,,,,,610705,000006ORLJ,F 1918 NW 48TH AV,1922 NW 48TH AV,
1926,NW 48TH AV,COCNUT CRK,33063,,,,,,,610705,000006OVWY,F 1918 NW 48TH AV,1926 NW 48TH AV,
1930,NW 48TH AV,COCNUT CRK,33063,,,,,,,610705,000006ORAC,F 1938 NW 48TH AV,1930 NW 48TH AV,
1934,NW 48TH AV,COCNUT CRK,33063,,,,,,,610705,000006OQXP,F 1938 NW 48TH AV,1934 NW 48TH AV,
1938,NW 48TH AV,COCNUT CRK,33063,,,,,,,610705,000006OQV4,F 1938 NW 48TH AV,1938 NW 48TH AV,
1950,NW 48TH AV,COCNUT CRK,33063,,,,,,,610705,000006OVTT,F 1938 NW 48TH AV,1950 NW 48TH AV,
1983,NW 48TH AV,COCNUT CRK,33063,,,,,,,610705,000006OVUC,F 1938 NW 48TH AV,1983 NW 48TH AV,
2002,NW 48TH AV,COCNUT CRK,33063,,,,,,,610705,000006OVGN,F 1938 NW 48TH AV,2002 NW 48TH AV,
2006,NW 48TH AV,COCNUT CRK,33063,,,,,,,610705,000006OTHX,F 1938 NW 48TH AV,2006 NW 48TH AV,
1929,NW 49TH AV,COCNUT CRK,33063,,,,,,,610705,000006OTJ9,F 2001 NW 49TH AV,1929 NW 49TH AV,
2001,NW 49TH AV,COCNUT CRK,33063,,,,,,,610705,000006OS5R,F 2001 NW 49TH AV,2001 NW 49TH AV,
2005,NW 49TH AV,COCNUT CRK,33063,,,,,,,610705,000006OQTJ,F 2001 NW 49TH AV,2005 NW 49TH AV,Y
2009,NW 49TH AV,COCNUT CRK,33063,,,,,,,610705,000006ORSM,F 2001 NW 49TH AV,2009 NW 49TH AV,
2013,NW 49TH AV,COCNUT CRK,33063,,,,,,,610705,000006OS5E,F 2001 NW 49TH AV,2013 NW 49TH AV,
2010,NW 48TH AV,COCNUT CRK,33063,,,,,,,610705,000006OQFI,F 2018 NW 48TH AV,2010 NW 48TH AV,
2014,NW 48TH AV,COCNUT CRK,33063,,,,,,,610705,000006OSMJ,F 2018 NW 48TH AV,2014 NW 48TH AV,
2018,NW 48TH AV,COCNUT CRK,33063,,,,,,,610705,000006OS6Q,F 2018 NW 48TH AV,2018 NW 48TH AV,
2022,NW 48TH AV,COCNUT CRK,33063,,,,,,,610705,000006OPWL,F 2018 NW 48TH AV,2022 NW 48TH AV,
2026,NW 48TH AV,COCNUT CRK,33063,,,,,,,610705,000006OTJH,F 2018 NW 48TH AV,2026 NW 48TH AV,
4838,NW 21ST ST,COCNUT CRK,33063,,,,,,,610705,000006OS7Z,F 2101 NW 49TH AV,4838 NW 21ST ST,
2101,NW 49TH AV,COCNUT CRK,33063,,,,,,,610705,000006OS7H,F 2101 NW 49TH AV,2101 NW 49TH AV,
2105,NW 49TH AV,COCNUT CRK,33063,,,,,,,610705,000006OQ9J,F 2101 NW 49TH AV,2105 NW 49TH AV,
2109,NW 49TH AV,COCNUT CRK,33063,,,,,,,610705,000006OTLP,F 2101 NW 49TH AV,2109 NW 49TH AV,
2102,NW 48TH AV,COCNUT CRK,33063,,,,,,,610705,000006OVQ4,F 2102 NW 48TH AV,2102 NW 48TH AV,
2106,NW 48TH AV,COCNUT CRK,33063,,,,,,,610705,000006OSL9,F 2102 NW 48TH AV,2106 NW 48TH AV,
2110,NW 48TH AV,COCNUT CRK,33063,,,,,,,610705,000006OPSX,F 2102 NW 48TH AV,2110 NW 48TH AV,
2114,NW 48TH AV,COCNUT CRK,33063,,,,,,,610705,000006OTWM,F 2102 NW 48TH AV,2114 NW 48TH AV,
2118,NW 48TH AV,COCNUT CRK,33063,,,,,,,610705,000006OS5L,F 2102 NW 48TH AV,2118 NW 48TH AV,
2110,NW 48TH TER,COCNUT CRK,33063,,,,,,,610705,000006OVSY,F 2118 NW 48TH TER,2110 NW 48TH TER,
2114,NW 48TH TER,COCNUT CRK,33063,,,,,,,610705,000006OPZD,F 2118 NW 48TH TER,2114 NW 48TH TER,
2118,NW 48TH TER,COCNUT CRK,33063,,,,,,,610705,000006OSO5,F 2118 NW 48TH TER,2118 NW 48TH TER,
2122,NW 48TH TER,COCNUT CRK,33063,,,,,,,610705,000006OV0C,F 2118 NW 48TH TER,2122 NW 48TH TER,
2111,NW 48TH TER,COCNUT CRK,33063,,,,,,,610705,000006OVBT,F 2119 NW 48TH TER,2111 NW 48TH TER,
2115,NW 48TH TER,COCNUT CRK,33063,,,,,,,610705,000006OQF4,F 2119 NW 48TH TER,2115 NW 48TH TER,
2119,NW 48TH TER,COCNUT CRK,33063,,,,,,,610705,000006OUF8,F 2119 NW 48TH TER,2119 NW 48TH TER,
2123,NW 48TH TER,COCNUT CRK,33063,,,,,,,610705,000006OWQM,F 2119 NW 48TH TER,2123 NW 48TH TER,
2127,NW 48TH TER,COCNUT CRK,33063,,,,,,,610705,000006OQEU,F 2119 NW 48TH TER,2127 NW 48TH TER,
2113,NW 49TH AV,COCNUT CRK,33063,,,,,,,610705,000006OVC2,F 2121 NW 49TH AV,2113 NW 49TH AV,
2117,NW 49TH AV,COCNUT CRK,33063,,,,,,,610705,000006OS4W,F 2121 NW 49TH AV,2117 NW 49TH AV,
2121,NW 49TH AV,COCNUT CRK,33063,,,,,,,610705,000006OVS4,F 2121 NW 49TH AV,2121 NW 49TH AV,
2125,NW 49TH AV,COCNUT CRK,33063,,,,,,,610705,000006OPX4,F 2121 NW 49TH AV,2125 NW 49TH AV,
2110,NW 49TH AV,COCNUT CRK,33063,,,,,,,610705,000006OQGS,F 2122 NW 49TH AV,2110 NW 49TH AV,
2114,NW 49TH AV,COCNUT CRK,33063,,,,,,,610705,000006ORTB,F 2122 NW 49TH AV,2114 NW 49TH AV,
2118,NW 49TH AV,COCNUT CRK,33063,,,,,,,610705,000006OVTX,F 2122 NW 49TH AV,2118 NW 49TH AV,
2122,NW 49TH AV,COCNUT CRK,33063,,,,,,,610705,000006OU30,F 2122 NW 49TH AV,2122 NW 49TH AV,
2126,NW 49TH AV,COCNUT CRK,33063,,,,,,,610705,000006OWPW,F 2122 NW 49TH AV,2126 NW 49TH AV,
2129,NW 49TH AV,COCNUT CRK,33063,,,,,,,610705,000006OTKP,F 2205 NW 49TH AV,2129 NW 49TH AV,
2201,NW 49TH AV,COCNUT CRK,33063,,,,,,,610705,000006OWBL,F 2205 NW 49TH AV,2201 NW 49TH AV,
2205,NW 49TH AV,COCNUT CRK,33063,,,,,,,610705,000006ORB7,F 2205 NW 49TH AV,2205 NW 49TH AV,
2209,NW 49TH AV,COCNUT CRK,33063,,,FLR,FDW1,,,610705,000006OQXK,F 2205 NW 49TH AV,2209 NW 49TH AV   FLR FDW1,
2209,NW 49TH AV,COCNUT CRK,33063,,,,,,,610705,000006ORAG,F 2205 NW 49TH AV,2209 NW 49TH AV,Y
2405,NW 49TH AV,COCNUT CRK,33063,,,,,,,610705,000006ORBR,F 2205 NW 49TH AV,2405 NW 49TH AV,
2464,NW 49TH AV,COCNUT CRK,33063,,,,,,,610705,000006OPYZ,F 2205 NW 49TH AV,2464 NW 49TH AV,
2499,NW 49TH AV,COCNUT CRK,33063,APT,743-3,,,,,610705,000006ORSK,F 2205 NW 49TH AV,2499 NW 49TH AV APT 743-3,
2539,NW 49TH AV,COCNUT CRK,33063,,,,,,,610705,000006OVCL,F 2205 NW 49TH AV,2539 NW 49TH AV,
2583,NW 49TH AV,COCNUT CRK,33063,APT,108,,,,,610705,000006OWRH,F 2205 NW 49TH AV,2583 NW 49TH AV APT 108,
4701,NW 21ST CT,COCNUT CRK,33063,,,,,,,610705,000006OVRZ,F 4702 NW 21ST CT,4701 NW 21ST CT,
4702,NW 21ST CT,COCNUT CRK,33063,,,,,,,610705,000006OUJE,F 4702 NW 21ST CT,4702 NW 21ST CT,
4705,NW 21ST CT,COCNUT CRK,33063,,,,,,,610705,000006OWLU,F 4702 NW 21ST CT,4705 NW 21ST CT,
4706,NW 21ST CT,COCNUT CRK,33063,,,,,,,610705,000006OQXD,F 4702 NW 21ST CT,4706 NW 21ST CT,
4709,NW 21ST CT,COCNUT CRK,33063,,,,,,,610705,000006OT3A,F 4717 NW 21ST CT,4709 NW 21ST CT,
4713,NW 21ST CT,COCNUT CRK,33063,,,,,,,610705,000006OUZP,F 4717 NW 21ST CT,4713 NW 21ST CT,
4717,NW 21ST CT,COCNUT CRK,33063,,,,,,,610705,000006OUGM,F 4717 NW 21ST CT,4717 NW 21ST CT,
4721,NW 21ST CT,COCNUT CRK,33063,,,,,,,610705,000006OUXE,F 4717 NW 21ST CT,4721 NW 21ST CT,
4725,NW 21ST CT,COCNUT CRK,33063,,,,,,,610705,000006OS9U,F 4717 NW 21ST CT,4725 NW 21ST CT,
4721,NW 15TH ST,COCNUT CRK,33063,SUIT,12,,,,,610705,000006OSIM,F 4721 NW 15TH ST,4721 NW 15TH ST SUIT 12,
4721,NW 15TH ST,COCNUT CRK,33063,,,,,,,610705,000006OWQQ,F 4721 NW 15TH ST,4721 NW 15TH ST,
4710,NW 21ST CT,COCNUT CRK,33063,,,,,,,610705,000006OTKO,F 4722 NW 21ST CT,4710 NW 21ST CT,
4714,NW 21ST CT,COCNUT CRK,33063,,,,,,,610705,000006OQX1,F 4722 NW 21ST CT,4714 NW 21ST CT,
4718,NW 21ST CT,COCNUT CRK,33063,,,,,,,610705,000006OS5F,F 4722 NW 21ST CT,4718 NW 21ST CT,
4722,NW 21ST CT,COCNUT CRK,33063,,,,,,,610705,000006OTKK,F 4722 NW 21ST CT,4722 NW 21ST CT,
4726,NW 21ST CT,COCNUT CRK,33063,,,,,,,610705,000006OQST,F 4722 NW 21ST CT,4726 NW 21ST CT,
4726,NW 14TH ST,COCNUT CRK,33063,,,,,,,610705,000006OWRE,F 4726 NW 14TH ST,4726 NW 14TH ST,
4736,NW 14TH ST,COCNUT CRK,33063,,,,,,,610705,000006OQCG,F 4726 NW 14TH ST,4736 NW 14TH ST,
4742,NW 15TH ST,COCNUT CRK,33063,,,,,,,610705,000006OVSP,F 4742 NW 15TH ST,4742 NW 15TH ST,
1461,NW 47TH AV,COCNUT CRK,33063,,,,,,,610705,000006OVTQ,F 4742 NW 15TH ST,1461 NW 47TH AV,
4746,NW 14TH ST,COCNUT CRK,33063,,,,,,,610705,000006OVFR,F 4746 NW 14TH ST,4746 NW 14TH ST,
4756,NW 14TH ST,COCNUT CRK,33063,,,,,,,610705,000006OUWM,F 4746 NW 14TH ST,4756 NW 14TH ST,
4752,NW 15TH ST,COCNUT CRK,33063,,,,,,,610705,000006OUD0,F 4752 NW 15TH ST,4752 NW 15TH ST,
4762,NW 15TH ST,COCNUT CRK,33063,,,,,,,610705,000006OVE6,F 4752 NW 15TH ST,4762 NW 15TH ST,
4763,NW 14TH DR,COCNUT CRK,33063,,,,,,,610705,000006OVFK,F 4763.1 NW 14TH DR,4763 NW 14TH DR,
4773,NW 14TH DR,COCNUT CRK,33063,,,,,,,610705,000006OWAY,F 4763.1 NW 14TH DR,4773 NW 14TH DR,
4766,NW 14TH ST,COCNUT CRK,33063,,,,,,,610705,000006OPZH,F 4766 NW 14TH ST,4766 NW 14TH ST,
4776,NW 14TH ST,COCNUT CRK,33063,,,,,,,610705,000006OWQT,F 4766 NW 14TH ST,4776 NW 14TH ST,
4772,NW 15TH ST,COCNUT CRK,33063,,,,,,,610705,000006OWCZ,F 4772 NW 15TH ST,4772 NW 15TH ST,
4774,NW 14TH DR,COCNUT CRK,33063,,,,,,,610705,000006OTWG,F 4774 NW 14TH DR,4774 NW 14TH DR,
4784,NW 14TH DR,COCNUT CRK,33063,,,,,,,610705,000006ORQ8,F 4774 NW 14TH DR,4784 NW 14TH DR,
4775,NW 14TH ST,COCNUT CRK,33063,,,,,,,610705,000006OU2O,F 4775 NW 14TH ST,4775 NW 14TH ST,
4785,NW 14TH ST,COCNUT CRK,33063,,,,,,,610705,000006ORB5,F 4775 NW 14TH ST,4785 NW 14TH ST,
4786,NW 14TH ST,COCNUT CRK,33063,,,,,,,610705,000006OUX9,F 4786 NW 14TH ST,4786 NW 14TH ST,Y
4796,NW 14TH ST,COCNUT CRK,33063,,,,,,,610705,000006OSNZ,F 4786 NW 14TH ST,4796 NW 14TH ST,
4794,NW 14TH DR,COCNUT CRK,33063,,,,,,,610705,000006ORAE,F 4794 NW 14TH DR,4794 NW 14TH DR,
4804,NW 14TH DR,COCNUT CRK,33063,,,,,,,610705,000006OW8K,F 4794 NW 14TH DR,4804 NW 14TH DR,
4795,NW 14TH ST,COCNUT CRK,33063,,,,,,,610705,000006OTHT,F 4795 NW 14TH ST,4795 NW 14TH ST,
4805,NW 14TH ST,COCNUT CRK,33063,,,,,,,610705,000006OWBO,F 4795 NW 14TH ST,4805 NW 14TH ST,
4800,NW 19TH ST,COCNUT CRK,33063,,,,,,,610705,000006OQ9Z,F 4800 NW 19TH ST,4800 NW 19TH ST,
4804,NW 19TH ST,COCNUT CRK,33063,,,,,,,610705,000006OQBW,F 4800 NW 19TH ST,4804 NW 19TH ST,
1902,NW 48TH AV,COCNUT CRK,33063,,,,,,,610705,000006OWAS,F 4800 NW 19TH ST,1902 NW 48TH AV,
1906,NW 48TH AV,COCNUT CRK,33063,,,,,,,610705,000006OQDI,F 4800 NW 19TH ST,1906 NW 48TH AV,
4801,NW 15TH ST,COCNUT CRK,33063,,,,,,,610705,000006OUTK,F 4801 NW 15TH ST,4801 NW 15TH ST,
4811,NW 15TH ST,COCNUT CRK,33063,,,,,,,610705,000006OSJ4,F 4801 NW 15TH ST,4811 NW 15TH ST,
4801,NW 20TH PL,COCNUT CRK,33063,,,,,,,610705,000006OQVO,F 4805 NW 20TH PL,4801 NW 20TH PL,
4805,NW 20TH PL,COCNUT CRK,33063,,,,,,,610705,000006OT4E,F 4805 NW 20TH PL,4805 NW 20TH PL,
4809,NW 20TH PL,COCNUT CRK,33063,,,,,,,610705,000006OPWN,F 4805 NW 20TH PL,4809 NW 20TH PL,
4813,NW 20TH PL,COCNUT CRK,33063,,,,,,,610705,000006OVSS,F 4805 NW 20TH PL,4813 NW 20TH PL,
4801,NW 21ST ST,COCNUT CRK,33063,,,,,,,610705,000006OQT8,F 4805 NW 21ST ST,4801 NW 21ST ST,
4805,NW 21ST ST,COCNUT CRK,33063,,,,,,,610705,000006OUIX,F 4805 NW 21ST ST,4805 NW 21ST ST,
4809,NW 21ST ST,COCNUT CRK,33063,,,,,,,610705,000006OW6P,F 4805 NW 21ST ST,4809 NW 21ST ST,
4806,NW 14TH ST,COCNUT CRK,33063,,,,,,,610705,000006OSPK,F 4806 NW 14TH ST,4806 NW 14TH ST,
4816,NW 14TH ST,COCNUT CRK,33063,,,,,,,610705,000006OSNO,F 4806 NW 14TH ST,4816 NW 14TH ST,
4440,NW 21ST ST,COCNUT CRK,33073,APT,203,,,,,610705,000006QDZT,F 4806 NW 21ST ST,4440 NW 21ST ST APT 203,
4802,NW 21ST ST,COCNUT CRK,33063,,,,,,,610705,000006OWS6,F 4806 NW 21ST ST,4802 NW 21ST ST,Y
4806,NW 21ST ST,COCNUT CRK,33063,,,,,,,610705,000006OQDP,F 4806 NW 21ST ST,4806 NW 21ST ST,
4810,NW 21ST ST,COCNUT CRK,33063,,,,,,,610705,000006OUGL,F 4806 NW 21ST ST,4810 NW 21ST ST,
4814,NW 21ST ST,COCNUT CRK,33063,,,,,,,610705,000006ORT0,F 4806 NW 21ST ST,4814 NW 21ST ST,
4802,NW 22ND PL,COCNUT CRK,33063,,,,,,,610705,000006OW6D,F 4806 NW 22ND PL,4802 NW 22ND PL,
4806,NW 22ND PL,COCNUT CRK,33063,,,,,,,610705,000006OQBV,F 4806 NW 22ND PL,4806 NW 22ND PL,
4810,NW 22ND PL,COCNUT CRK,33063,,,,,,,610705,000006OWN2,F 4806 NW 22ND PL,4810 NW 22ND PL,
4805,NW 19TH ST,COCNUT CRK,33063,,,,,,,610705,000006OW5N,F 4809 NW 19TH ST,4805 NW 19TH ST,
4809,NW 19TH ST,COCNUT CRK,33063,,,,,,,610705,000006OS5K,F 4809 NW 19TH ST,4809 NW 19TH ST,
4813,NW 19TH ST,COCNUT CRK,33063,,,,,,,610705,000006OTFT,F 4809 NW 19TH ST,4813 NW 19TH ST,
4817,NW 19TH ST,COCNUT CRK,33063,,,,,,,610705,000006OSMM,F 4809 NW 19TH ST,4817 NW 19TH ST,
4812,NW 15TH ST,COCNUT CRK,33063,,,,,,,610705,000006OUJA,F 4812 NW 15TH ST,4812 NW 15TH ST,
1463,NW 48TH AV,COCNUT CRK,33063,,,,,,,610705,000006OV8O,F 4812 NW 15TH ST,1463 NW 48TH AV,
4808,NW 19TH ST,COCNUT CRK,33063,,,,,,,610705,000006OTYF,F 4812 NW 19TH ST,4808 NW 19TH ST,
4816,NW 19TH ST,COCNUT CRK,33063,,,,,,,610705,000006OU27,F 4812 NW 19TH ST,4816 NW 19TH ST,
4820,NW 19TH ST,COCNUT CRK,33063,,,,,,,610705,000006OVWO,F 4812 NW 19TH ST,4820 NW 19TH ST,
4813,NW 14TH DR,COCNUT CRK,33063,,,,,,,610705,000006OVCU,F 4813 NW 14TH DR,4813 NW 14TH DR,
4823,NW 14TH DR,COCNUT CRK,33063,,,,,,,610705,000006OQC1,F 4813 NW 14TH DR,4823 NW 14TH DR,
4814,NW 14TH DR,COCNUT CRK,33063,,,,,,,610705,000006OSPW,F 4814 NW 14TH DR,4814 NW 14TH DR,
4824,NW 14TH DR,COCNUT CRK,33063,,,,,,,610705,000006OQWR,F 4814 NW 14TH DR,4824 NW 14TH DR,
4815,NW 22ND PL,COCNUT CRK,33063,,,,,,,610705,000006OSZQ,F 4815 NW 22ND PL,4815 NW 22ND PL,
4819,NW 22ND PL,COCNUT CRK,33063,,,,,,,610705,000006OTIM,F 4815 NW 22ND PL,4819 NW 22ND PL,
4823,NW 22ND PL,COCNUT CRK,33063,,,,,,,610705,000006ORP8,F 4815 NW 22ND PL,4823 NW 22ND PL,
4815,NW 14TH ST,COCNUT CRK,33063,,,,,,,610705,000006OTFK,F 4815.1 NW 14TH ST,4815 NW 14TH ST,
4808,NW 20TH PL,COCNUT CRK,33063,,,,,,,610705,000006OTJ1,F 4816 NW 20TH PL,4808 NW 20TH PL,
4812,NW 20TH PL,COCNUT CRK,33063,,,,,,,610705,000006OQFJ,F 4816 NW 20TH PL,4812 NW 20TH PL,
4816,NW 20TH PL,COCNUT CRK,33063,,,,,,,610705,000006OR60,F 4816 NW 20TH PL,4816 NW 20TH PL,
4820,NW 20TH PL,COCNUT CRK,33063,,,,,,,610705,000006OTKH,F 4816 NW 20TH PL,4820 NW 20TH PL,
4821,NW 15TH ST,COCNUT CRK,33063,,,,,,,610705,000006OPSQ,F 4821 NW 15TH ST,4821 NW 15TH ST,
4831,NW 15TH ST,COCNUT CRK,33063,,,,,,,610705,000006OVU7,F 4821 NW 15TH ST,4831 NW 15TH ST,
4817,NW 20TH PL,COCNUT CRK,33063,,,,,,,610705,000006OTZW,F 4821 NW 20TH PL,4817 NW 20TH PL,
4821,NW 20TH PL,COCNUT CRK,33063,,,,,,,610705,000006OUW5,F 4821 NW 20TH PL,4821 NW 20TH PL,
4825,NW 20TH PL,COCNUT CRK,33063,,,,,,,610705,000006OW9U,F 4821 NW 20TH PL,4825 NW 20TH PL,
4829,NW 20TH PL,COCNUT CRK,33063,,,,,,,610705,000006OU22,F 4821 NW 20TH PL,4829 NW 20TH PL,
4822,NW 15TH ST,COCNUT CRK,33063,,,,,,,610705,000006OWOY,F 4822 NW 15TH ST,4822 NW 15TH ST,
4832,NW 15TH ST,COCNUT CRK,33063,,,,,,,610705,000006OU2R,F 4822 NW 15TH ST,4832 NW 15TH ST,
4818,NW 21ST ST,COCNUT CRK,33063,,,,,,,610705,000006OWAN,F 4822 NW 21ST ST,4818 NW 21ST ST,
4822,NW 21ST ST,COCNUT CRK,33063,,,,,,,610705,000006OW5P,F 4822 NW 21ST ST,4822 NW 21ST ST,
4826,NW 21ST ST,COCNUT CRK,33063,,,,,,,610705,000006OQCO,F 4822 NW 21ST ST,4826 NW 21ST ST,
4830,NW 21ST ST,COCNUT CRK,33063,,,,,,,610705,000006OUYQ,F 4822 NW 21ST ST,4830 NW 21ST ST,
4834,NW 21ST ST,COCNUT CRK,33063,,,,,,,610705,000006OTVI,F 4822 NW 21ST ST,4834 NW 21ST ST,
4821,NW 19TH ST,COCNUT CRK,33063,,,,,,,610705,000006OWCX,F 4825 NW 19TH ST,4821 NW 19TH ST,
4825,NW 19TH ST,COCNUT CRK,33063,,,,,,,610705,000006OQU7,F 4825 NW 19TH ST,4825 NW 19TH ST,
4829,NW 19TH ST,COCNUT CRK,33063,,,,,,,610705,000006OR5T,F 4825 NW 19TH ST,4829 NW 19TH ST,
4833,NW 19TH ST,COCNUT CRK,33063,,,,,,,610705,000006OR4W,F 4825 NW 19TH ST,4833 NW 19TH ST,
4826,NW 14TH ST,COCNUT CRK,33063,,,,,,,610705,000006OWCK,F 4826 NW 14TH ST,4826 NW 14TH ST,Y
4836,NW 14TH ST,COCNUT CRK,33063,,,,,,,610705,000006ORSP,F 4826 NW 14TH ST,4836 NW 14TH ST,
4827,NW 22ND PL,COCNUT CRK,33063,,,,,,,610705,000006OW5I,F 4827 NW 22ND PL,4827 NW 22ND PL,
4831,NW 22ND PL,COCNUT CRK,33063,,,,,,,610705,000006OTG6,F 4827 NW 22ND PL,4831 NW 22ND PL,
4835,NW 22ND PL,COCNUT CRK,33063,,,,,,,610705,000006OTG4,F 4827 NW 22ND PL,4835 NW 22ND PL,
4839,NW 22ND PL,COCNUT CRK,33063,,,,,,,610705,000006ORPQ,F 4827 NW 22ND PL,4839 NW 22ND PL,
4812,NW 19TH ST,COCNUT CRK,33063,,,,,,,610705,000006OVV7,F 4828 NW 19TH ST,4812 NW 19TH ST,
4824,NW 19TH ST,COCNUT CRK,33063,,,,,,,610705,000006OTLM,F 4828 NW 19TH ST,4824 NW 19TH ST,
4828,NW 19TH ST,COCNUT CRK,33063,,,,,,,610705,000006OQUX,F 4828 NW 19TH ST,4828 NW 19TH ST,
4832,NW 19TH ST,COCNUT CRK,33063,,,,,,,610705,000006OSME,F 4828 NW 19TH ST,4832 NW 19TH ST,
4836,NW 19TH ST,COCNUT CRK,33063,,,,,,,610705,000006OSMQ,F 4828 NW 19TH ST,4836 NW 19TH ST,
4840,NW 19TH ST,COCNUT CRK,33063,UNIT,GUARD HSE,,,,,610705,000006OPTU,F 4828 NW 19TH ST,4840 NW 19TH ST UNIT GUARD HSE,
4804,NW 20TH PL,COCNUT CRK,33063,,,,,,,610705,000006OU0Z,F 4828 NW 20TH PL,4804 NW 20TH PL,
4824,NW 20TH PL,COCNUT CRK,33063,,,,,,,610705,000006OSYQ,F 4828 NW 20TH PL,4824 NW 20TH PL,
4828,NW 20TH PL,COCNUT CRK,33063,,,,,,,610705,000006OVVY,F 4828 NW 20TH PL,4828 NW 20TH PL,
4832,NW 20TH PL,COCNUT CRK,33063,,,,,,,610705,000006OROG,F 4828 NW 20TH PL,4832 NW 20TH PL,
4836,NW 20TH PL,COCNUT CRK,33063,,,,,,,610705,000006OUH2,F 4828 NW 20TH PL,4836 NW 20TH PL,
4833,NW 14TH DR,COCNUT CRK,33063,,,,,,,610705,000006ORU1,F 4833 NW 14TH DR,4833 NW 14TH DR,
4843,NW 14TH DR,COCNUT CRK,33063,,,,,,,610705,000006ORT5,F 4833 NW 14TH DR,4843 NW 14TH DR,
4833,NW 20TH PL,COCNUT CRK,33063,,,,,,,610705,000006OTYZ,F 4837 NW 20TH PL,4833 NW 20TH PL,
4837,NW 20TH PL,COCNUT CRK,33063,,,,,,,610705,000006OTWE,F 4837 NW 20TH PL,4837 NW 20TH PL,
4841,NW 20TH PL,COCNUT CRK,33063,,,,,,,610705,000006OS7U,F 4837 NW 20TH PL,4841 NW 20TH PL,
4845,NW 20TH PL,COCNUT CRK,33063,,,,,,,610705,000006OSYH,F 4837 NW 20TH PL,4845 NW 20TH PL,
4849,NW 20TH PL,COCNUT CRK,33063,,,,,,,610705,000006OQW8,F 4837 NW 20TH PL,4849 NW 20TH PL,
4841,NW 15TH ST,COCNUT CRK,33063,,,,,,,610705,000006ORMD,F 4841 NW 15TH ST,4841 NW 15TH ST,
4851,NW 15TH ST,COCNUT CRK,33063,,,,,,,610705,000006OUCU,F 4841 NW 15TH ST,4851 NW 15TH ST,
4837,NW 19TH ST,COCNUT CRK,33063,,,,,,,610705,000006OQEG,F 4841 NW 19TH ST,4837 NW 19TH ST,
4841,NW 19TH ST,COCNUT CRK,33063,,,,,,,610705,000006OVDR,F 4841 NW 19TH ST,4841 NW 19TH ST,
4845,NW 19TH ST,COCNUT CRK,33063,,,,,,,610705,000006OT1P,F 4841 NW 19TH ST,4845 NW 19TH ST,
4849,NW 19TH ST,COCNUT CRK,33063,,,,,,,610705,000006OUGE,F 4841 NW 19TH ST,4849 NW 19TH ST,
4853,NW 19TH ST,COCNUT CRK,33063,,,,,,,610705,000006OPTG,F 4841 NW 19TH ST,4853 NW 19TH ST,
4842,NW 15TH ST,COCNUT CRK,33063,,,,,,,610705,000006OPST,F 4842 NW 15TH ST,4842 NW 15TH ST,
4852,NW 15TH ST,COCNUT CRK,33063,,,,,,,610705,000006OUEU,F 4842 NW 15TH ST,4852 NW 15TH ST,
4840,NW 20TH PL,COCNUT CRK,33063,,,,,,,610705,000006OVWH,F 4844 NW 20TH PL,4840 NW 20TH PL,
4844,NW 20TH PL,COCNUT CRK,33063,,,,,,,610705,000006OUSF,F 4844 NW 20TH PL,4844 NW 20TH PL,
4848,NW 20TH PL,COCNUT CRK,33063,,,,,,,610705,000006OS9R,F 4844 NW 20TH PL,4848 NW 20TH PL,
4852,NW 20TH PL,COCNUT CRK,33063,,,,,,,610705,000006OVVT,F 4844 NW 20TH PL,4852 NW 20TH PL,
4846,NW 14TH ST,COCNUT CRK,33063,,,,,,,610705,000006OWPX,F 4846 NW 14TH ST,4846 NW 14TH ST,
4856,NW 14TH ST,COCNUT CRK,33063,,,,,,,610705,000006OT6J,F 4856 NW 14TH ST,4856 NW 14TH ST,
4861,NW 15TH ST,COCNUT CRK,33063,,,,,,,610705,000006OS1K,F 4861 NW 15TH ST,4861 NW 15TH ST,
4871,NW 15TH ST,COCNUT CRK,33063,,,,,,,610705,000006OVDS,F 4861 NW 15TH ST,4871 NW 15TH ST,
4866,NW 14TH ST,COCNUT CRK,33063,,,,,,,610705,000006ORR0,F 4866 NW 14TH ST,4866 NW 14TH ST,
4876,NW 14TH ST,COCNUT CRK,33063,,,,,,,610705,000006OTJ0,F 4866 NW 14TH ST,4876 NW 14TH ST,
1700,HAMMOCK BLVD,COCNUT CRK,33063,APT,A-1,,,,,610705,000006OTLS,MR 1700 HAMMOCK BLVD,1700 HAMMOCK BLVD APT A-1,
1700,HAMMOCK BLVD,COCNUT CRK,33063,APT,A-7,,,,,610705,000006OVQ6,MR 1700 HAMMOCK BLVD,1700 HAMMOCK BLVD APT A-7,
1702,HAMMOCK BLVD,COCNUT CRK,33063,,,,,,,610705,000006OQTC,MR 1700 HAMMOCK BLVD,1702 HAMMOCK BLVD,
1704,HAMMOCK BLVD,COCNUT CRK,33063,,,,,,,610705,000006ORQG,MR 1700 HAMMOCK BLVD,1704 HAMMOCK BLVD,
1706,HAMMOCK BLVD,COCNUT CRK,33063,,,,,,,610705,000006OU2P,MR 1700 HAMMOCK BLVD,1706 HAMMOCK BLVD,
1708,HAMMOCK BLVD,COCNUT CRK,33063,UNIT,111,,,,,610705,000006ORST,MR 1700 HAMMOCK BLVD,1708 HAMMOCK BLVD UNIT 111,Y
1708,HAMMOCK BLVD,COCNUT CRK,33063,,,,,,,610705,000006OWTL,MR 1700 HAMMOCK BLVD,1708 HAMMOCK BLVD,
1710,HAMMOCK BLVD,COCNUT CRK,33063,,,,,,,610705,000006OQ0J,MR 1700 HAMMOCK BLVD,1710 HAMMOCK BLVD,
1712,HAMMOCK BLVD,COCNUT CRK,33063,UNIT,113,,,,,610705,000006ORBV,MR 1700 HAMMOCK BLVD,1712 HAMMOCK BLVD UNIT 113,
1712,HAMMOCK BLVD,COCNUT CRK,33063,,,,,,,610705,000006OVCR,MR 1700 HAMMOCK BLVD,1712 HAMMOCK BLVD,
1714,HAMMOCK BLVD,COCNUT CRK,33063,,,,,,,610705,000006OR7J,MR 1700 HAMMOCK BLVD,1714 HAMMOCK BLVD,
1716,HAMMOCK BLVD,COCNUT CRK,33063,,,,,,,610705,000006OUHZ,MR 1700 HAMMOCK BLVD,1716 HAMMOCK BLVD,
1718,HAMMOCK BLVD,COCNUT CRK,33063,APT,2-B,,,,,610705,000006OPZ6,MR 1700 HAMMOCK BLVD,1718 HAMMOCK BLVD APT 2-B,
1718,HAMMOCK BLVD,COCNUT CRK,33063,,,,,,,610705,000006OVVS,MR 1700 HAMMOCK BLVD,1718 HAMMOCK BLVD,
1720,HAMMOCK BLVD,COCNUT CRK,33063,,,,,,,610705,000006OUSH,MR 1700 HAMMOCK BLVD,1720 HAMMOCK BLVD,
1722,HAMMOCK BLVD,COCNUT CRK,33063,,,,,,,610705,000006OT2T,MR 1700 HAMMOCK BLVD,1722 HAMMOCK BLVD,
1724,HAMMOCK BLVD,COCNUT CRK,33063,,,,,,,610705,000006ORR6,MR 1700 HAMMOCK BLVD,1724 HAMMOCK BLVD,
1726,HAMMOCK BLVD,COCNUT CRK,33063,,,,,,,610705,000006ORRL,MR 1700 HAMMOCK BLVD,1726 HAMMOCK BLVD,
1728,HAMMOCK BLVD,COCNUT CRK,33063,,,,,,,610705,000006OTVP,MR 1700 HAMMOCK BLVD,1728 HAMMOCK BLVD,
1730,HAMMOCK BLVD,COCNUT CRK,33063,,,,,,,610705,000006OWSQ,MR 1700 HAMMOCK BLVD,1730 HAMMOCK BLVD,
1732,HAMMOCK BLVD,COCNUT CRK,33063,,,,,,,610705,000006OSO9,MR 1700 HAMMOCK BLVD,1732 HAMMOCK BLVD,
1734,HAMMOCK BLVD,COCNUT CRK,33063,,,,,,,610705,000006OSJ1,MR 1700 HAMMOCK BLVD,1734 HAMMOCK BLVD,
1736,HAMMOCK BLVD,COCNUT CRK,33063,,,,,,,610705,000006OTFR,MR 1700 HAMMOCK BLVD,1736 HAMMOCK BLVD,
1738,HAMMOCK BLVD,COCNUT CRK,33063,,,,,,,610705,000006OQGQ,MR 1700 HAMMOCK BLVD,1738 HAMMOCK BLVD,
1740,HAMMOCK BLVD,COCNUT CRK,33063,,,,,,,610705,000006OT3I,MR 1700 HAMMOCK BLVD,1740 HAMMOCK BLVD,
1742,HAMMOCK BLVD,COCNUT CRK,33063,,,,,,,610705,000006OQCZ,MR 1700 HAMMOCK BLVD,1742 HAMMOCK BLVD,
1744,HAMMOCK BLVD,COCNUT CRK,33063,,,,,,,610705,000006OWA4,MR 1700 HAMMOCK BLVD,1744 HAMMOCK BLVD,
1746,HAMMOCK BLVD,COCNUT CRK,33063,,,,,,,610705,000006ORTI,MR 1700 HAMMOCK BLVD,1746 HAMMOCK BLVD,
1748,HAMMOCK BLVD,COCNUT CRK,33063,,,,,,,610705,000006OSML,MR 1700 HAMMOCK BLVD,1748 HAMMOCK BLVD,
1701,HAMMOCK BLVD,COCNUT CRK,33063,,,,,,,610705,000006OPVQ,MR 1701 HAMMOCK BLVD BLDG 47,1701 HAMMOCK BLVD,
1703,HAMMOCK BLVD,COCNUT CRK,33063,,,,,,,610705,000006OUT0,MR 1701 HAMMOCK BLVD BLDG 47,1703 HAMMOCK BLVD,
1705,HAMMOCK BLVD,COCNUT CRK,33063,,,,,,,610705,000006OSZC,MR 1701 HAMMOCK BLVD BLDG 47,1705 HAMMOCK BLVD,
1707,HAMMOCK BLVD,COCNUT CRK,33063,UNIT,104,,,,,610705,00010X9PLH,MR 1701 HAMMOCK BLVD BLDG 47,1707 HAMMOCK BLVD UNIT 104,
1707,HAMMOCK BLVD,COCNUT CRK,33063,,,,,,,610705,000006OSIK,MR 1701 HAMMOCK BLVD BLDG 47,1707 HAMMOCK BLVD,
1709,HAMMOCK BLVD,COCNUT CRK,33063,,,,,,,610705,000006OUYI,MR 1701 HAMMOCK BLVD BLDG 47,1709 HAMMOCK BLVD,
1711,HAMMOCK BLVD,COCNUT CRK,33063,,,,,,,610705,000006OUXC,MR 1701 HAMMOCK BLVD BLDG 47,1711 HAMMOCK BLVD,
1713,HAMMOCK BLVD,COCNUT CRK,33063,,,,,,,610705,000006OU10,MR 1701 HAMMOCK BLVD BLDG 47,1713 HAMMOCK BLVD,
1715,HAMMOCK BLVD,COCNUT CRK,33063,,,,,,,610705,000006OWP4,MR 1701 HAMMOCK BLVD BLDG 47,1715 HAMMOCK BLVD,
1717,HAMMOCK BLVD,COCNUT CRK,33063,,,,,,,610705,000006OTWL,MR 1701 HAMMOCK BLVD BLDG 47,1717 HAMMOCK BLVD,
1719,HAMMOCK BLVD,COCNUT CRK,33063,,,,,,,610705,000006OU2J,MR 1701 HAMMOCK BLVD BLDG 47,1719 HAMMOCK BLVD,
1721,HAMMOCK BLVD,COCNUT CRK,33063,,,,,,,610705,000006OWDA,MR 1701 HAMMOCK BLVD BLDG 47,1721 HAMMOCK BLVD,
1723,HAMMOCK BLVD,COCNUT CRK,33063,,,,,,,610705,000006OUCH,MR 1701 HAMMOCK BLVD BLDG 47,1723 HAMMOCK BLVD,
1768,HAMMOCK BLVD,COCNUT CRK,33063,,,,,,,610705,000006OUYT,MR 1768 HAMMOCK BLVD,1768 HAMMOCK BLVD,
1770,HAMMOCK BLVD,COCNUT CRK,33063,,,,,,,610705,000006OVW9,MR 1768 HAMMOCK BLVD,1770 HAMMOCK BLVD,
1772,HAMMOCK BLVD,COCNUT CRK,33063,,,,,,,610705,000006OTLD,MR 1768 HAMMOCK BLVD,1772 HAMMOCK BLVD,
1774,HAMMOCK BLVD,COCNUT CRK,33063,,,,,,,610705,000006OPVU,MR 1768 HAMMOCK BLVD,1774 HAMMOCK BLVD,
1776,HAMMOCK BLVD,COCNUT CRK,33063,,,,,,,610705,000006OUYC,MR 1768 HAMMOCK BLVD,1776 HAMMOCK BLVD,
1778,HAMMOCK BLVD,COCNUT CRK,33063,,,,,,,610705,000006OQVU,MR 1768 HAMMOCK BLVD,1778 HAMMOCK BLVD,
1780,HAMMOCK BLVD,COCNUT CRK,33063,,,,,,,610705,000006OWBC,MR 1768 HAMMOCK BLVD,1780 HAMMOCK BLVD,
1782,HAMMOCK BLVD,COCNUT CRK,33063,,,,,,,610705,000006OR7T,MR 1768 HAMMOCK BLVD,1782 HAMMOCK BLVD,
1784,HAMMOCK BLVD,COCNUT CRK,33063,,,,,,,610705,000006OR4R,MR 1768 HAMMOCK BLVD,1784 HAMMOCK BLVD,
1786,HAMMOCK BLVD,COCNUT CRK,33063,,,,,,,610705,000006OVPM,MR 1768 HAMMOCK BLVD,1786 HAMMOCK BLVD,
1788,HAMMOCK BLVD,COCNUT CRK,33063,,,,,,,610705,000006OWCN,MR 1768 HAMMOCK BLVD,1788 HAMMOCK BLVD,
1790,HAMMOCK BLVD,COCNUT CRK,33063,,,,,,,610705,000006OQGH,MR 1768 HAMMOCK BLVD,1790 HAMMOCK BLVD,
1796,SATINWOOD CIR,COCNUT CRK,33063,,,,,,,610705,000006OR4Q,R 1796 SATINWOOD CIR,1796 SATINWOOD CIR,
1825,TAMARIND LN,COCNUT CRK,33063,,,,,,,610705,000006OTIV,R 1825 TAMARIND LN,1825 TAMARIND LN,
4731,NW 15TH ST,COCNUT CRK,33063,,,,,,,610705,000006OUC3,R 4731 NW 15TH ST,4731 NW 15TH ST,
4741,NW 15TH ST,COCNUT CRK,33063,,,,,,,610705,000006OTIJ,R 4731 NW 15TH ST,4741 NW 15TH ST,
4751,NW 15TH ST,COCNUT CRK,33063,,,,,,,610705,000006OQ07,R 4751 NW 15TH ST,4751 NW 15TH ST,
4761,NW 15TH ST,COCNUT CRK,33063,,,,,,,610705,000006OWD7,R 4751 NW 15TH ST,4761 NW 15TH ST,
4764,NW 14TH DR,COCNUT CRK,33063,,,,,,,610705,000006OUK0,R 4764 NW 14TH DR,4764 NW 14TH DR,
4765,NW 14TH ST,COCNUT CRK,33063,,,,,,,610705,000006OSIQ,R 4764 NW 14TH DR,4765 NW 14TH ST,
4771,NW 15TH ST,COCNUT CRK,33063,,,,,,,610705,000006OQEY,R 4871 NW 15TH ST,4771 NW 15TH ST,
4781,NW 15TH ST,COCNUT CRK,33063,,,,,,,610705,000006OS6R,R 4871 NW 15TH ST,4781 NW 15TH ST,
1411,NW 47TH AV,COCNUT CRK,33063,,,,,,,610705,000006OWAF,S 1411 NW 47TH AV,1411 NW 47TH AV,
1412,NW 47TH TER,COCNUT CRK,33063,,,,,,,610705,000006OVVE,S 1411 NW 47TH AV,1412 NW 47TH TER,
4834,NW 14TH DR,COCNUT CRK,33063,,,,,,,610705,000006OWQA,S 4834 NW 14TH DR,4834 NW 14TH DR,
4825,NW 14TH ST,COCNUT CRK,33063,,,,,,,610705,000006OQA0,S 4834 NW 14TH DR,4825 NW 14TH ST,
4835,NW 14TH ST,COCNUT CRK,33063,,,,,,,610705,000006OSMF,S 4834 NW 14TH DR,4835 NW 14TH ST,
