House Number,Street Name,Community,Zip Code,Unit Type,Unit,Floor Type,Floor,Building Type,Building,DA/PSA,OVALS Address ID,Primary_Term_Address,FAC_ADDR,Working TN Status
"6601","LYONS RD","COCNUT CRK","33073","UNIT","BAY A-7","","","","","220203","=""00000HR4UR""","R 1715 NE 51TH ST","6601 LYONS RD UNIT BAY A-7",""
"6601","LYONS RD","COCNUT CRK","33073","UNIT","BAY L-8","","","","","220203","=""00000HR6BK""","R 1715 NE 51TH ST","6601 LYONS RD UNIT BAY L-8",""
"4801","N FEDERAL HWY","POMP","33064","","","","","","","220203","=""00000HR2DT""","R 2000 NE 49TH ST","4801 N FEDERAL HWY",""
"4891","N FEDERAL HWY","POMP","33064","UNIT","CRNR","","","","","220203","=""00000HR0QS""","R 2000 NE 49TH ST","4891 N FEDERAL HWY UNIT CRNR",""
"4891","N FEDERAL HWY","POMP","33064","","","","","","","220203","=""00000HR07F""","R 2000 NE 49TH ST","4891 N FEDERAL HWY",""
"4915","N FEDERAL HWY","POMP","33064","UNIT","OUTSIDE","","","","","220203","=""00000HQWL5""","F 4915 N FEDERAL HWY","4915 N FEDERAL HWY UNIT OUTSIDE",""
"4915","N FEDERAL HWY","POMP","33064","","","","","","","220203","=""00000HR07L""","F 4915 N FEDERAL HWY","4915 N FEDERAL HWY",""
"5001","N FEDERAL HWY","POMP","33064","RM","EDC","FLR","1","","","220203","=""00000HQW5M""","I 5001 N FEDERAL HWY","5001 N FEDERAL HWY RM EDC FLR 1",""
"5001","N FEDERAL HWY","POMP","33064","","","","","","","220203","=""00000HQXZF""","I 5001 N FEDERAL HWY","5001 N FEDERAL HWY","Y"
"5083","N FEDERAL HWY","POMP","33064","","","","","","","220203","=""00000HQYDN""","S 5083 N FEDERAL HWY","5083 N FEDERAL HWY",""
"5101","N FEDERAL HWY","POMP","33064","UNIT","CAFE","","","","","220203","=""00000HQZG0""","5101 N FEDERAL HWY","5101 N FEDERAL HWY UNIT CAFE","Y"
"5101","N FEDERAL HWY","POMP","33064","UNIT","OFC","","","","","220203","=""00000HR1Y9""","5101 N FEDERAL HWY","5101 N FEDERAL HWY UNIT OFC",""
"5101","N FEDERAL HWY","POMP","33064","RM","SERVER","FLR","1","","","220203","=""00000HR0AP""","5101 N FEDERAL HWY","5101 N FEDERAL HWY RM SERVER FLR 1",""
"5101","N FEDERAL HWY","POMP","33064","","","","","","","220203","=""00000HR2S9""","5101 N FEDERAL HWY","5101 N FEDERAL HWY",""
"4866","NE 14TH TER","POMP","33064","","","","","","","220203","=""00000HR2DP""","R 4920 NE 14TH WAY","4866 NE 14TH TER",""
"4876","NE 14TH TER","POMP","33064","","","","","","","220203","=""00000HR2CX""","R 4920 NE 14TH WAY","4876 NE 14TH TER",""
"4920","NE 14TH TER","POMP","33064","","","","","","","220203","=""00000HR1JB""","R 4920 NE 14TH WAY","4920 NE 14TH TER",""
"5012","NE 14TH TER","POMP","33064","","","","","","","220203","=""00000HQYV3""","R 5012 NE 14TH TER","5012 NE 14TH TER",""
"5024","NE 14TH TER","POMP","33064","","","","","","","220203","=""00000HR0BJ""","R 5036 NE 14TH TER","5024 NE 14TH TER",""
"5036","NE 14TH TER","POMP","33064","","","","","","","220203","=""00000HR06W""","R 5036 NE 14TH TER","5036 NE 14TH TER",""
"5048","NE 14TH TER","POMP","33064","","","","","","","220203","=""00000HQZRA""","R 5095 NE 17TH DR","5048 NE 14TH TER",""
"5060","NE 14TH TER","POMP","33064","","","","","","","220203","=""00000HQXZL""","R 5060 NE 14TH TER","5060 NE 14TH TER",""
"5072","NE 14TH TER","POMP","33064","","","","","","","220203","=""00000HQZPZ""","R 5060 NE 14TH TER","5072 NE 14TH TER",""
"4930","NE 14TH WAY","POMP","33064","","","","","","","220203","=""00000HQYV2""","R 4930 NE 14TH WAY","4930 NE 14TH WAY",""
"4940","NE 14TH WAY","POMP","33064","","","","","","","220203","=""00000HR0ME""","R 4940 NE 14TH WAY","4940 NE 14TH WAY",""
"4945","NE 14TH WAY","POMP","33064","","","","","","","220203","=""00000HQYYX""","R 5012 NE 14TH TER","4945 NE 14TH WAY",""
"4950","NE 14TH WAY","POMP","33064","","","","","","","220203","=""00000HQWK7""","R 4940 NE 14TH WAY","4950 NE 14TH WAY",""
"4960","NE 14TH WAY","POMP","33064","","","","","","","220203","=""00000HQZRX""","R 4873 NE 15TH AV","4960 NE 14TH WAY",""
"4965","NE 14TH WAY","POMP","33064","","","","","","","220203","=""00000HR0BC""","R 4965 NE 14TH WAY","4965 NE 14TH WAY",""
"4970","NE 14TH WAY","POMP","33064","","","","","","","220203","=""00000HQW50""","R 4980 NE 14TH WAY","4970 NE 14TH WAY",""
"4980","NE 14TH WAY","POMP","33064","","","","","","","220203","=""00000HR1XP""","R 4980 NE 14TH WAY","4980 NE 14TH WAY",""
"4985","NE 14TH WAY","POMP","33064","","","","","","","220203","=""00000HQZFM""","R 4965 NE 14TH WAY","4985 NE 14TH WAY",""
"4990","NE 14TH WAY","POMP","33064","","","","","","","220203","=""00000HQZQK""","R 5071 NE 17TH DR","4990 NE 14TH WAY",""
"4853","NE 15TH AV","POMP","33064","","","","","","","220203","=""00000HR1HJ""","R 4920 NE 14TH WAY","4853 NE 15TH AV",""
"4857","NE 15TH AV","POMP","33064","","","","","","","220203","=""00000HR05I""","R 4920 NE 14TH WAY","4857 NE 15TH AV",""
"4860","NE 15TH AV","POMP","33064","","","","","","","220203","=""00000HR07G""","R 4866 NE 15TH AV","4860 NE 15TH AV",""
"4861","NE 15TH AV","POMP","33064","","","","","","","220203","=""00000HQZVM""","R 4930 NE 14TH WAY","4861 NE 15TH AV",""
"4865","NE 15TH AV","POMP","33064","","","","","","","220203","=""00000HQW57""","R 4940 NE 14TH WAY","4865 NE 15TH AV",""
"4866","NE 15TH AV","POMP","33064","","","","","","","220203","=""00000HQYVF""","R 4866 NE 15TH AV","4866 NE 15TH AV",""
"4869","NE 15TH AV","POMP","33064","","","","","","","220203","=""00000HQYVB""","R 4873 NE 15TH AV","4869 NE 15TH AV",""
"4870","NE 15TH AV","POMP","33064","","","","","","","220203","=""00000HQZR9""","R 4866 NE 15TH AV","4870 NE 15TH AV","Y"
"4873","NE 15TH AV","POMP","33064","","","","","","","220203","=""00000HR05K""","R 4873 NE 15TH AV","4873 NE 15TH AV",""
"4874","NE 15TH AV","POMP","33064","","","","","","","220203","=""00000HR071""","R 4873 NE 16 AV","4874 NE 15TH AV",""
"4877","NE 15TH AV","POMP","33064","","","","","","","220203","=""00000HQZG2""","R 4980 NE 14TH WAY","4877 NE 15TH AV",""
"4878","NE 15TH AV","POMP","33064","","","","","","","220203","=""00000HR2D3""","R 4873 NE 16 AV","4878 NE 15TH AV",""
"4881","NE 15TH AV","POMP","33064","","","","","","","220203","=""00000HQZG8""","R 4980 NE 14TH WAY","4881 NE 15TH AV",""
"4882","NE 15TH AV","POMP","33064","","","","","","","220203","=""00000HQWL0""","R 4897 NE 16 AV","4882 NE 15TH AV",""
"4885","NE 15TH AV","POMP","33064","","","","","","","220203","=""00000HQXXT""","R 5071 NE 17TH DR","4885 NE 15TH AV",""
"4886","NE 15TH AV","POMP","33064","","","","","","","220203","=""00000HR2DO""","R 4873 NE 16 AV","4886 NE 15TH AV",""
"4855","NE 16TH AV","POMP","33064","","","","","","","220203","=""00000HQYVN""","R 4866 NE 15TH AV","4855 NE 16TH AV",""
"4859","NE 16TH AV","POMP","33064","","","","","","","220203","=""00000HQYDO""","R 4866 NE 15TH AV","4859 NE 16TH AV",""
"4865","NE 16TH AV","POMP","33064","","","","","","","220203","=""00000HQXY9""","R 4866 NE 15TH AV","4865 NE 16TH AV",""
"4870","NE 16TH AV","POMP","33064","","","","","","","220203","=""00000HQXZ7""","R 4870 NE 16TH AV","4870 NE 16TH AV",""
"4873","NE 16TH AV","POMP","33064","","","","","","","220203","=""00000HR0LJ""","R 4873 NE 16 AV","4873 NE 16TH AV",""
"4881","NE 16TH AV","POMP","33064","","","","","","","220203","=""00000HQZC3""","R 4873 NE 16 AV","4881 NE 16TH AV",""
"4888","NE 16TH AV","POMP","33064","","","","","","","220203","=""00000HR11A""","R 1685 NE 48TH CT","4888 NE 16TH AV",""
"4889","NE 16TH AV","POMP","33064","","","","","","","220203","=""00000HQZF9""","R 4897 NE 16 AV","4889 NE 16TH AV",""
"4896","NE 16TH AV","POMP","33064","","","","","","","220203","=""00000HQYJS""","R 1685 NE 48TH CT","4896 NE 16TH AV",""
"4897","NE 16TH AV","POMP","33064","","","","","","","220203","=""00000HQZF4""","R 4897 NE 16 AV","4897 NE 16TH AV",""
"5063","NE 17TH DR","POMP","33064","","","","","","","220203","=""00000HQYZ2""","R 5071 NE 17TH DR","5063 NE 17TH DR",""
"5071","NE 17TH DR","POMP","33064","","","","","","","220203","=""00000HQYF3""","R 5071 NE 17TH DR","5071 NE 17TH DR",""
"5077","NE 17TH DR","POMP","33064","","","","","","","220203","=""00000HR1JK""","R 5077 NE 17TH DR","5077 NE 17TH DR",""
"5083","NE 17TH DR","POMP","33064","","","","","","","220203","=""00000HR1J8""","R 5077 NE 17TH DR","5083 NE 17TH DR",""
"5089","NE 17TH DR","POMP","33064","","","","","","","220203","=""00000HQYVW""","R 5077 NE 17TH DR","5089 NE 17TH DR",""
"4916","NE 19TH AV","POMP","33064","","","","","","","220203","=""00000HQXYW""","R 4919 NE 19TH TER","4916 NE 19TH AV",""
"4932","NE 19TH AV","POMP","33064","","","","","","","220203","=""00000HR0LV""","R 4919 NE 19TH TER","4932 NE 19TH AV",""
"4948","NE 19TH AV","POMP","33064","","","","","","","220203","=""00000HQYDV""","R 4955 NE 19 TER","4948 NE 19TH AV",""
"4955","NE 19TH AV","POMP","33064","","","","","","","220203","=""00000HQZVX""","R 4919 NE 19TH TER","4955 NE 19TH AV",""
"5016","NE 19TH AV","POMP","33064","","","","","","","220203","=""00000HR1JO""","R 5032 NE 19TH AV","5016 NE 19TH AV",""
"5032","NE 19TH AV","POMP","33064","","","","","","","220203","=""00000HR1J7""","R 5032 NE 19TH AV","5032 NE 19TH AV",""
"5048","NE 19TH AV","POMP","33064","","","","","","","220203","=""00000HQYDT""","R 5064 NE 19TH AV","5048 NE 19TH AV",""
"5064","NE 19TH AV","POMP","33064","","","","","","","220203","=""00000HR0MF""","R 5064 NE 19TH AV","5064 NE 19TH AV",""
"5121","NE 19TH AV","POMP","33064","","","","","","","220203","=""00000HR05Z""","R 1847 NE 51TH ST","5121 NE 19TH AV",""
"4816","NE 19TH TER","POMP","33064","","","","","","","220203","=""00000HQYVM""","R 4816 NE 19TH TER","4816 NE 19TH TER",""
"4832","NE 19TH TER","POMP","33064","","","","","","","220203","=""00000HQZPN""","R 4832 NE 19TH TER","4832 NE 19TH TER",""
"4848","NE 19TH TER","POMP","33064","","","","","","","220203","=""00000HQXY2""","R 4832 NE 19TH TER","4848 NE 19TH TER",""
"4864","NE 19TH TER","POMP","33064","","","","","","","220203","=""00000HQWKW""","R 4864 NE 19 TER","4864 NE 19TH TER",""
"4865","NE 19TH TER","POMP","33064","","","","","","","220203","=""00000HQZFR""","R 1932 NE 49TH ST","4865 NE 19TH TER",""
"4878","NE 19TH TER","POMP","33064","","","","","","","220203","=""00000HQXZR""","R 4864 NE 19 TER","4878 NE 19TH TER",""
"4880","NE 19TH TER","POMP","33064","","","","","","","220203","=""00000HR0LY""","R 4864 NE 19 TER","4880 NE 19TH TER",""
"4885","NE 19TH TER","POMP","33064","","","","","","","220203","=""00000HQZVH""","R 1932 NE 49TH ST","4885 NE 19TH TER",""
"4890","NE 19TH TER","POMP","33064","APT","EFCNY","","","","","220203","=""00000HQYDJ""","R 4896 NE 19TH TER","4890 NE 19TH TER APT EFCNY",""
"4890","NE 19TH TER","POMP","33064","","","","","","","220203","=""00000HQZQ8""","R 4896 NE 19TH TER","4890 NE 19TH TER",""
"4918","NE 19TH TER","POMP","33064","","","","","","","220203","=""00000HR0LN""","R 4918 NE 19TH TER","4918 NE 19TH TER",""
"4919","NE 19TH TER","POMP","33064","","","","","","","220203","=""00000HQZF8""","R 4919 NE 19TH TER","4919 NE 19TH TER",""
"4936","NE 19TH TER","POMP","33064","","","","","","","220203","=""00000HQZV5""","R 4936 NE 19TH TER","4936 NE 19TH TER",""
"4937","NE 19TH TER","POMP","33064","","","","","","","220203","=""00000HQXZ2""","R 4919 NE 19TH TER","4937 NE 19TH TER",""
"4954","NE 19TH TER","POMP","33064","","","","","","","220203","=""00000HQWKB""","R 4936 NE 19TH TER","4954 NE 19TH TER",""
"4955","NE 19TH TER","POMP","33064","","","","","","","220203","=""00000HQYF4""","R 4955 NE 19 TER","4955 NE 19TH TER",""
"4972","NE 19TH TER","POMP","33064","UNIT","EFCNY","","","","","220203","=""00000HQYZI""","R 4972 NE 19TH TER","4972 NE 19TH TER UNIT EFCNY",""
"4972","NE 19TH TER","POMP","33064","","","","","","","220203","=""00000HQZPK""","R 4972 NE 19TH TER","4972 NE 19TH TER",""
"4973","NE 19TH TER","POMP","33064","","","","","","","220203","=""00000HR11C""","R 4955 NE 19 TER","4973 NE 19TH TER",""
"5000","NE 19TH TER","POMP","33064","","","","","","","220203","=""00000HQYDZ""","R 5018 NE 19 TER","5000 NE 19TH TER",""
"5001","NE 19TH TER","POMP","33064","","","","","","","220203","=""00000HQZ0A""","R 5032 NE 19TH AV","5001 NE 19TH TER",""
"5018","NE 19TH TER","POMP","33064","","","","","","","220203","=""00000HQYF0""","R 5018 NE 19 TER","5018 NE 19TH TER",""
"5019","NE 19TH TER","POMP","33064","","","","","","","220203","=""00000HQYDI""","R 5032 NE 19TH AV","5019 NE 19TH TER",""
"5036","NE 19TH TER","POMP","33064","","","","","","","220203","=""00000HQW54""","R 5054 NE 19TH TER","5036 NE 19TH TER",""
"5037","NE 19TH TER","POMP","33064","","","","","","","220203","=""00000HQYDE""","R 5032 NE 19TH AV","5037 NE 19TH TER",""
"5054","NE 19TH TER","POMP","33064","","","","","","","220203","=""00000HQYW6""","R 5054 NE 19TH TER","5054 NE 19TH TER",""
"5055","NE 19TH TER","POMP","33064","","","","","","","220203","=""00000HQYUA""","R 5064 NE 19TH AV","5055 NE 19TH TER",""
"5072","NE 19TH TER","POMP","33064","","","","","","","220203","=""00000HQYF6""","MR 5072 NE 19TH TER","5072 NE 19TH TER",""
"5073","NE 19TH TER","POMP","33064","","","","","","","220203","=""00000HQZRZ""","R 5064 NE 19TH AV","5073 NE 19TH TER",""
"1520","NE 48TH CT","POMP","33064","","","","","","","220203","=""00000HR0BO""","R 1540 NE 48TH CT","1520 NE 48TH CT",""
"1521","NE 48TH CT","POMP","33064","","","","","","","220203","=""00000HR2CW""","R 4866 NE 15TH AV","1521 NE 48TH CT",""
"1540","NE 48TH CT","POMP","33064","","","","","","","220203","=""00000HQYWB""","R 1540 NE 48TH CT","1540 NE 48TH CT",""
"1560","NE 48TH CT","POMP","33064","","","","","","","220203","=""00000HQZFD""","R 1540 NE 48TH CT","1560 NE 48TH CT",""
"1600","NE 48TH CT","POMP","33064","","","","","","","220203","=""00000HR0M6""","R 1565 NE 48 ST","1600 NE 48TH CT",""
"1609","NE 48TH CT","POMP","33064","","","","","","","220203","=""00000HQWJW""","R 4870 NE 16TH AV","1609 NE 48TH CT",""
"1612","NE 48TH CT","POMP","33064","","","","","","","220203","=""00000HQZG1""","R 1565 NE 48 ST","1612 NE 48TH CT",""
"1621","NE 48TH CT","POMP","33064","","","","","","","220203","=""00000HQZFE""","R 4870 NE 16TH AV","1621 NE 48TH CT",""
"1624","NE 48TH CT","POMP","33064","","","","","","","220203","=""00000HR1JL""","R 1601 NE 48 ST","1624 NE 48TH CT",""
"1636","NE 48TH CT","POMP","33064","","","","","","","220203","=""00000HQZPM""","R 1601 NE 48 ST","1636 NE 48TH CT",""
"1641","NE 48TH CT","POMP","33064","","","","","","","220203","=""00000HR0C0""","R 1661 NE 48 CT","1641 NE 48TH CT",""
"1648","NE 48TH CT","POMP","33064","","","","","","","220203","=""00000HQYDM""","R 1648 NE 48TH CT","1648 NE 48TH CT",""
"1660","NE 48TH CT","POMP","33064","","","","","","","220203","=""00000HQZAR""","R 1648 NE 48TH CT","1660 NE 48TH CT",""
"1661","NE 48TH CT","POMP","33064","","","","","","","220203","=""00000HQYWA""","R 1661 NE 48 CT","1661 NE 48TH CT",""
"1672","NE 48TH CT","POMP","33064","","","","","","","220203","=""00000HR06A""","R 1672 NE 48TH CT","1672 NE 48TH CT",""
"1673","NE 48TH CT","POMP","33064","","","","","","","220203","=""00000HQX0B""","R 1685 NE 48TH CT","1673 NE 48TH CT",""
"1684","NE 48TH CT","POMP","33064","","","","","","","220203","=""00000HR065""","R 1672 NE 48TH CT","1684 NE 48TH CT",""
"1685","NE 48TH CT","POMP","33064","","","","","","","220203","=""00000HQYJU""","R 1685 NE 48TH CT","1685 NE 48TH CT",""
"1717","NE 48TH CT","POMP","33064","","","","","","","220203","=""00000HQZF3""","R 1732 NE 49TH ST","1717 NE 48TH CT",""
"1718","NE 48TH CT","POMP","33064","","","","","","","220203","=""00000HQZBR""","R 1818 NE 48TH CT","1718 NE 48TH CT",""
"1731","NE 48TH CT","POMP","33064","","","","","","","220203","=""00000HR0BX""","R 1743 NE 48TH CT","1731 NE 48TH CT",""
"1736","NE 48TH CT","POMP","33064","","","","","","","220203","=""00000HQZBX""","R 1736 NE 48TH CT","1736 NE 48TH CT",""
"1743","NE 48TH CT","POMP","33064","","","","","","","220203","=""00000HR1Y2""","R 1800 NE 49TH ST","1743 NE 48TH CT",""
"1754","NE 48TH CT","POMP","33064","","","","","","","220203","=""00000HR1JM""","R 1754 NE 48TH CT","1754 NE 48TH CT","Y"
"1755","NE 48TH CT","POMP","33064","","","","","","","220203","=""00000HR0LE""","R 1800 NE 49TH ST","1755 NE 48TH CT",""
"1772","NE 48TH CT","POMP","33064","","","","","","","220203","=""00000HQXXO""","R 1754 NE 48TH CT","1772 NE 48TH CT",""
"1773","NE 48TH CT","POMP","33064","","","","","","","220203","=""00000HQYEV""","R 1832 NE 49TH ST","1773 NE 48TH CT",""
"1818","NE 48TH CT","POMP","33064","","","","","","","220203","=""00000HQZFF""","R 1818 NE 48TH CT","1818 NE 48TH CT",""
"1819","NE 48TH CT","POMP","33064","","","","","","","220203","=""00000HQZPV""","R 1832 NE 49TH ST","1819 NE 48TH CT",""
"1836","NE 48TH CT","POMP","33064","","","","","","","220203","=""00000HQYVJ""","R 1818 NE 48TH CT","1836 NE 48TH CT",""
"1837","NE 48TH CT","POMP","33064","","","","","","","220203","=""00000HQZVJ""","R 1864 NE 49TH ST","1837 NE 48TH CT",""
"1854","NE 48TH CT","POMP","33064","","","","","","","220203","=""00000HQXY8""","R 1872 NE 48TH CT","1854 NE 48TH CT",""
"1855","NE 48TH CT","POMP","33064","","","","","","","220203","=""00000HQYZ3""","R 1864 NE 49TH ST","1855 NE 48TH CT",""
"1870","NE 48TH CT","POMP","33064","APT","122","","","","","220203","=""00010WD9HU""","R 1872 NE 48TH CT","1870 NE 48TH CT APT 122",""
"1870","NE 48TH CT","POMP","33064","APT","122","","","","","220203","=""00010WD9HU""","","1870 NE 48TH CT APT 122",""
"1872","NE 48TH CT","POMP","33064","","","","","","","220203","=""00000HR0LS""","R 1872 NE 48TH CT","1872 NE 48TH CT",""
"1873","NE 48TH CT","POMP","33064","","","","","","","220203","=""00000HQZV6""","R 1873 NE 48TH CT","1873 NE 48TH CT",""
"1914","NE 48TH CT","POMP","33064","","","","","","","220203","=""00000HQXZ1""","R 1914 NE 48TH CT","1914 NE 48TH CT",""
"1915","NE 48TH CT","POMP","33064","","","","","","","220203","=""00000HQYZ0""","R 1873 NE 48TH CT","1915 NE 48TH CT",""
"1928","NE 48TH CT","POMP","33064","","","","","","","220203","=""00000HQZC0""","R 1914 NE 48TH CT","1928 NE 48TH CT",""
"1929","NE 48TH CT","POMP","33064","","","","","","","220203","=""00000HQYZ9""","R 1932 NE 49TH ST","1929 NE 48TH CT",""
"1942","NE 48TH CT","POMP","33064","APT","SIDE","","","","","220203","=""00000HR05Q""","R 1942 NE 48TH CT","1942 NE 48TH CT APT SIDE",""
"1942","NE 48TH CT","POMP","33064","","","","","","","220203","=""00000HR0B5""","R 1942 NE 48TH CT","1942 NE 48TH CT",""
"1517","NE 48TH ST","POMP","33064","","","","","","","220203","=""00000HR0BI""","R 1540 NE 48TH CT","1517 NE 48TH ST",""
"1533","NE 48TH ST","POMP","33064","","","","","","","220203","=""00000HR0MC""","R 1540 NE 48TH CT","1533 NE 48TH ST",""
"1549","NE 48TH ST","POMP","33064","","","","","","","220203","=""00000HQYW9""","R 1540 NE 48TH CT","1549 NE 48TH ST",""
"1565","NE 48TH ST","POMP","33064","","","","","","","220203","=""00000HQYZJ""","R 1565 NE 48 ST","1565 NE 48TH ST",""
"1581","NE 48TH ST","POMP","33064","","","","","","","220203","=""00000HQZ07""","R 1565 NE 48 ST","1581 NE 48TH ST",""
"1597","NE 48TH ST","POMP","33064","","","","","","","220203","=""00000HR1IU""","R 1601 NE 48 ST","1597 NE 48TH ST",""
"1601","NE 48TH ST","POMP","33064","","","","","","","220203","=""00000HR1IT""","R 1601 NE 48 ST","1601 NE 48TH ST",""
"1617","NE 48TH ST","POMP","33064","","","","","","","220203","=""00000HQZQO""","R 1601 NE 48 ST","1617 NE 48TH ST",""
"1633","NE 48TH ST","POMP","33064","","","","","","","220203","=""00000HQZUW""","R 1636 NE 48TH CT","1633 NE 48TH ST",""
"1649","NE 48TH ST","POMP","33064","","","","","","","220203","=""00000HQXZ8""","R 1648 NE 48TH CT","1649 NE 48TH ST",""
"1665","NE 48TH ST","POMP","33064","","","","","","","220203","=""00000HR05F""","R 1648 NE 48TH CT","1665 NE 48TH ST",""
"1681","NE 48TH ST","POMP","33064","","","","","","","220203","=""00000HR2D6""","R 1672 NE 48TH CT","1681 NE 48TH ST",""
"1697","NE 48TH ST","POMP","33064","","","","","","","220203","=""00000HR06B""","R 1672 NE 48TH CT","1697 NE 48TH ST",""
"1719","NE 48TH ST","POMP","33064","","","","","","","220203","=""00000HR2E8""","R 1736 NE 48TH CT","1719 NE 48TH ST",""
"1733","NE 48TH ST","POMP","33064","","","","","","","220203","=""00000HQYEP""","R 1754 NE 48TH CT","1733 NE 48TH ST",""
"1749","NE 48TH ST","POMP","33064","","","","","","","220203","=""00000HR1IP""","R 1754 NE 48TH CT","1749 NE 48TH ST","Y"
"1765","NE 48TH ST","POMP","33064","","","","","","","220203","=""00000HQYV8""","R 1818 NE 48TH CT","1765 NE 48TH ST",""
"1817","NE 48TH ST","POMP","33064","","","","","","","220203","=""00000HQWKG""","R 1818 NE 48TH CT","1817 NE 48TH ST",""
"1833","NE 48TH ST","POMP","33064","","","","","","","220203","=""00000HQXYD""","R 1872 NE 48TH CT","1833 NE 48TH ST",""
"1849","NE 48TH ST","POMP","33064","","","","","","","220203","=""00000HQZQG""","R 1872 NE 48TH CT","1849 NE 48TH ST",""
"1851","NE 48TH ST","POMP","33064","APT","133","","","","","220203","=""00000HR2SH""","R 1872 NE 48TH CT","1851 NE 48TH ST APT 133",""
"1865","NE 48TH ST","POMP","33064","","","","","","","220203","=""00000HQYVZ""","R 1914 NE 48TH CT","1865 NE 48TH ST",""
"1875","NE 48TH ST","POMP","33064","","","","","","","220203","=""00000HQZRT""","R 1914 NE 48TH CT","1875 NE 48TH ST",""
"1917","NE 48TH ST","POMP","33064","","","","","","","220203","=""00000HR2SI""","R 1942 NE 48TH CT","1917 NE 48TH ST",""
"1933","NE 48TH ST","POMP","33064","","","","","","","220203","=""00000HQYJR""","R 1942 NE 48TH CT","1933 NE 48TH ST",""
"1951","NE 48TH ST","POMP","33064","","","","","","","220203","=""00000HQXYT""","R 5072 NE 19TH TER","1951 NE 48TH ST",""
"1961","NE 48TH ST","POMP","33064","","","","","","","220203","=""00000HQYK0""","1951 NE 48TH ST","1961 NE 48TH ST","Y"
"AHN-1","NE 48TH ST","DFLD","33064","","","","","","","220203","=""Not SAG Valid""","R 1942 NE 48TH CT","AHN-1 NE 48TH ST",""
"AHN-1","NE 48TH ST & 19TH TER","POMP","33064","","","","","","","220203","=""Not SAG Valid""","R 1942 NE 48TH CT","AHN-1 NE 48TH ST & 19TH TER",""
"1713","NE 49TH CT","POMP","33064","","","","","","","220203","=""00000HQZW0""","R 1716 NE 50TH ST","1713 NE 49TH CT",""
"1714","NE 49TH CT","POMP","33064","","","","","","","220203","=""00000HR1XW""","R 1728 NE 49TH CT","1714 NE 49TH CT",""
"1728","NE 49TH CT","POMP","33064","","","","","","","220203","=""00000HQZC6""","R 1728 NE 49TH CT","1728 NE 49TH CT",""
"1729","NE 49TH CT","POMP","33064","","","","","","","220203","=""00000HQXZK""","R 1716 NE 50TH ST","1729 NE 49TH CT",""
"1742","NE 49TH CT","POMP","33064","","","","","","","220203","=""00000HQXY4""","R 1745 NE 49 ST","1742 NE 49TH CT",""
"1743","NE 49TH CT","POMP","33064","","","","","","","220203","=""00000HQZS0""","R 1724 NE 50TH ST","1743 NE 49TH CT",""
"1756","NE 49TH CT","POMP","33064","","","","","","","220203","=""00000HQZPI""","R 1745 NE 49 ST","1756 NE 49TH CT",""
"1757","NE 49TH CT","POMP","33064","","","","","","","220203","=""00000HQZF5""","R 1724 NE 50TH ST","1757 NE 49TH CT",""
"1767","NE 49TH CT","POMP","33064","UNIT","EFCNY","","","","","220203","=""00000HQZV4""","R 1740 NE 50 ST","1767 NE 49TH CT UNIT EFCNY",""
"1767","NE 49TH CT","POMP","33064","","","","","","","220203","=""00000HQZQV""","R 1740 NE 50 ST","1767 NE 49TH CT",""
"1770","NE 49TH CT","POMP","33064","","","","","","","220203","=""00000HR0B2""","R 1769 NE 49 ST","1770 NE 49TH CT",""
"1775","NE 49TH CT","POMP","33064","","","","","","","220203","=""00000HQZV3""","R 1768 NE 50TH ST","1775 NE 49TH CT",""
"1784","NE 49TH CT","POMP","33064","","","","","","","220203","=""00000HQWKY""","R 1769 NE 49 ST","1784 NE 49TH CT",""
"1785","NE 49TH CT","POMP","33064","","","","","","","220203","=""00000HR2DN""","R 1800 NE 50TH ST","1785 NE 49TH CT",""
"1798","NE 49TH CT","POMP","33064","","","","","","","220203","=""00000HR075""","R 1769 NE 49 ST","1798 NE 49TH CT",""
"1799","NE 49TH CT","POMP","33064","","","","","","","220203","=""00000HQYV5""","R 1800 NE 50TH ST","1799 NE 49TH CT",""
"1814","NE 49TH CT","POMP","33064","","","","","","","220203","=""00000HQZR1""","R 1787 NE 49 ST","1814 NE 49TH CT",""
"1815","NE 49TH CT","POMP","33064","","","","","","","220203","=""00000HR1J5""","R 1815 NE 49 CT","1815 NE 49TH CT",""
"1825","NE 49TH CT","POMP","33064","","","","","","","220203","=""00000HR1J4""","R 1815 NE 49 CT","1825 NE 49TH CT",""
"1828","NE 49TH CT","POMP","33064","","","","","","","220203","=""00000HQZR8""","R 1787 NE 49 ST","1828 NE 49TH CT",""
"1839","NE 49TH CT","POMP","33064","","","","","","","220203","=""00000HR06C""","1836 NE 50TH ST","1839 NE 49TH CT",""
"1842","NE 49TH CT","POMP","33064","","","","","","","220203","=""00000HR2SA""","1842 NE 49TH CT","1842 NE 49TH CT",""
"1853","NE 49TH CT","POMP","33064","","","","","","","220203","=""00000HR2DH""","1836 NE 50TH ST","1853 NE 49TH CT",""
"1856","NE 49TH CT","POMP","33064","","","","","","","220203","=""00000HQYJZ""","1842 NE 49TH CT","1856 NE 49TH CT",""
"1867","NE 49TH CT","POMP","33064","","","","","","","220203","=""00000HQWL8""","R 1860 NE 50TH ST","1867 NE 49TH CT",""
"1870","NE 49TH CT","POMP","33064","","","","","","","220203","=""00000HQYZQ""","1870 NE 49TH CT","1870 NE 49TH CT",""
"1881","NE 49TH CT","POMP","33064","","","","","","","220203","=""00000HQZUZ""","R 1860 NE 50TH ST","1881 NE 49TH CT",""
"1884","NE 49TH CT","POMP","33064","","","","","","","220203","=""00000HQZVE""","1884 NE 49TH CT","1884 NE 49TH CT",""
"1891","NE 49TH CT","POMP","33064","","","","","","","220203","=""00000HQZRC""","R 1884 NE 50TH ST","1891 NE 49TH CT",""
"1898","NE 49TH CT","POMP","33064","","","","","","","220203","=""00000HQZBO""","1884 NE 49TH CT","1898 NE 49TH CT",""
"1899","NE 49TH CT","POMP","33064","","","","","","","220203","=""00000HQYVO""","R 1884 NE 50TH ST","1899 NE 49TH CT",""
"1715","NE 49TH ST","POMP","33064","APT","EFCNY","","","","","220203","=""00000HQYUF""","R 1728 NE 49TH CT","1715 NE 49TH ST APT EFCNY",""
"1715","NE 49TH ST","POMP","33064","APT","SIDE","","","","","220203","=""00000HR1IZ""","R 1728 NE 49TH CT","1715 NE 49TH ST APT SIDE",""
"1716","NE 49TH ST","POMP","33064","","","","","","","220203","=""00000HR11G""","R 1732 NE 49TH ST","1716 NE 49TH ST",""
"1731","NE 49TH ST","POMP","33064","","","","","","","220203","=""00000HR1YF""","R 1728 NE 49TH CT","1731 NE 49TH ST",""
"1732","NE 49TH ST","POMP","33064","","","","","","","220203","=""00000HQYE1""","R 1732 NE 49TH ST","1732 NE 49TH ST",""
"1745","NE 49TH ST","POMP","33064","","","","","","","220203","=""00000HQZC7""","R 1745 NE 49 ST","1745 NE 49TH ST","Y"
"1748","NE 49TH ST","POMP","33064","","","","","","","220203","=""00000HQZRD""","R 1743 NE 48TH CT","1748 NE 49TH ST",""
"1759","NE 49TH ST","POMP","33064","","","","","","","220203","=""00000HQZS1""","1884 NE 49TH CT","1759 NE 49TH ST",""
"1764","NE 49TH ST","POMP","33064","","","","","","","220203","=""00000HQW5I""","R 1743 NE 48TH CT","1764 NE 49TH ST",""
"1769","NE 49TH ST","POMP","33064","","","","","","","220203","=""00000HQYZZ""","R 1769 NE 49 ST","1769 NE 49TH ST",""
"1779","NE 49TH ST","POMP","33064","","","","","","","220203","=""00000HQYEQ""","R 1787 NE 49 ST","1779 NE 49TH ST",""
"1780","NE 49TH ST","POMP","33064","","","","","","","220203","=""00000HQZRQ""","R 1743 NE 48TH CT","1780 NE 49TH ST",""
"1787","NE 49TH ST","POMP","33064","","","","","","","220203","=""00000HR076""","R 1787 NE 49 ST","1787 NE 49TH ST",""
"1800","NE 49TH ST","POMP","33064","","","","","","","220203","=""00000HQZFO""","R 1800 NE 49TH ST","1800 NE 49TH ST",""
"1809","NE 49TH ST","POMP","33064","","","","","","","220203","=""00000HQYZD""","1842 NE 49TH CT","1809 NE 49TH ST",""
"1816","NE 49TH ST","POMP","33064","","","","","","","220203","=""00000HQYDU""","R 1832 NE 49TH ST","1816 NE 49TH ST",""
"1825","NE 49TH ST","POMP","33064","","","","","","","220203","=""00000HQYZM""","1842 NE 49TH CT","1825 NE 49TH ST",""
"1832","NE 49TH ST","POMP","33064","","","","","","","220203","=""00000HR05N""","R 1832 NE 49TH ST","1832 NE 49TH ST",""
"1841","NE 49TH ST","POMP","33064","","","","","","","220203","=""00000HR2DS""","1870 NE 49TH CT","1841 NE 49TH ST",""
"1848","NE 49TH ST","POMP","33064","","","","","","","220203","=""00000HR0M4""","R 1864 NE 49TH ST","1848 NE 49TH ST",""
"1857","NE 49TH ST","POMP","33064","APT","EFCNY","","","","","220203","=""00000HR2D0""","1884 NE 49TH CT","1857 NE 49TH ST APT EFCNY",""
"1857","NE 49TH ST","POMP","33064","APT","EFCNYKING","","","","","220203","=""00000HQXZC""","1884 NE 49TH CT","1857 NE 49TH ST APT EFCNYKING",""
"1857","NE 49TH ST","POMP","33064","","","","","","","220203","=""00000HR1XT""","1884 NE 49TH CT","1857 NE 49TH ST",""
"1864","NE 49TH ST","POMP","33064","","","","","","","220203","=""00000HQXZ5""","R 1864 NE 49TH ST","1864 NE 49TH ST",""
"1875","NE 49TH ST","POMP","33064","","","","","","","220203","=""00000HR1JQ""","1884 NE 49TH CT","1875 NE 49TH ST",""
"1880","NE 49TH ST","POMP","33064","","","","","","","220203","=""00000HQZQ0""","R 1873 NE 48TH CT","1880 NE 49TH ST",""
"1916","NE 49TH ST","POMP","33064","","","","","","","220203","=""00000HQX0A""","R 1873 NE 48TH CT","1916 NE 49TH ST",""
"1932","NE 49TH ST","POMP","33064","","","","","","","220203","=""00000HQZQT""","R 1932 NE 49TH ST","1932 NE 49TH ST",""
"1940","NE 49TH ST","POMP","33064","","","","","","","220203","=""00000HR07N""","R 2030 NE 49TH ST","1940 NE 49TH ST",""
"1946","NE 49TH ST","POMP","33064","","","","","","","220203","=""00000HR1YJ""","R 2030 NE 49TH ST","1946 NE 49TH ST",""
"1952","NE 49TH ST","POMP","33064","","","","","","","220203","=""00000HR0MD""","R 5072 NE 19TH TER","1952 NE 49TH ST",""
"2000","NE 49TH ST","POMP","33064","","","","","","","220203","=""00000HQYZS""","R 2000 NE 49TH ST","2000 NE 49TH ST",""
"2020","NE 49TH ST","POMP","33064","","","","","","","220203","=""00000HQXYX""","R 2000 NE 49TH ST","2020 NE 49TH ST",""
"2021","NE 49TH ST","POMP","33064","UNIT","1","","","","","220203","=""00000HR2E0""","R 4918 NE 19TH TER","2021 NE 49TH ST UNIT 1",""
"2021","NE 49TH ST","POMP","33064","UNIT","2","","","","","220203","=""00000HR068""","R 4918 NE 19TH TER","2021 NE 49TH ST UNIT 2",""
"2021","NE 49TH ST","POMP","33064","APT","SIDE W","","","","","220203","=""00010DRUDN""","R 4918 NE 19TH TER","2021 NE 49TH ST APT SIDE W",""
"2023","NE 49TH ST","POMP","33064","","","","","","","220203","=""00000HQXZG""","R 4918 NE 19TH TER","2023 NE 49TH ST",""
"2025","NE 49TH ST","POMP","33064","","","FLR","LOBBY","","","220203","=""00000HQZC4""","R 4918 NE 19TH TER","2025 NE 49TH ST   FLR LOBBY",""
"2025","NE 49TH ST","POMP","33064","","","","","","","220203","=""00000HR2DY""","R 4918 NE 19TH TER","2025 NE 49TH ST",""
"2027","NE 49TH ST","POMP","33064","","","","","","","220203","=""00000HR0LK""","R 4918 NE 19TH TER","2027 NE 49TH ST",""
"2030","NE 49TH ST","POMP","33064","","","","","","","220203","=""00000HQZBU""","R 4918 NE 19TH TER","2030 NE 49TH ST",""
"2037","NE 49TH ST","POMP","33064","","","","","","","220203","=""00000HR060""","R 4918 NE 19TH TER","2037 NE 49TH ST",""
"2040","NE 49TH ST","POMP","33064","RM","TELCO","FLR","1","","","220203","=""00000HR063""","R 2000 NE 49TH ST","2040 NE 49TH ST RM TELCO FLR 1",""
"2040","NE 49TH ST","POMP","33064","","","","","","","220203","=""00000HQW5A""","R 2000 NE 49TH ST","2040 NE 49TH ST",""
"1650","NE 50TH CT","POMP","33064","UNIT","OUTSIDE","","","","","220203","=""00000HQZPP""","R 1765 NE 50TH ST","1650 NE 50TH CT UNIT OUTSIDE",""
"1650","NE 50TH CT","POMP","33064","","","","","","","220203","=""00000HQYW4""","F 5071 NE 17TH DR","1650 NE 50TH CT","Y"
"1678","NE 50TH CT","POMP","33064","","","","","","","220203","=""00000HQZBN""","R 1765 NE 50TH ST","1678 NE 50TH CT",""
"1712","NE 50TH CT","POMP","33064","","","","","","","220203","=""00000HR07C""","R 1709 NE 50TH ST","1712 NE 50TH CT",""
"1724","NE 50TH CT","POMP","33064","APT","RR","","","","","220203","=""00000HQZRH""","R 1709 NE 50TH ST","1724 NE 50TH CT APT RR",""
"1724","NE 50TH CT","POMP","33064","","","","","","","220203","=""00000HQZPW""","R 1709 NE 50TH ST","1724 NE 50TH CT",""
"1736","NE 50TH CT","POMP","33064","","","","","","","220203","=""00000HR1YP""","R 1725 NE 50TH ST","1736 NE 50TH CT",""
"1748","NE 50TH CT","POMP","33064","","","","","","","220203","=""00000HQXZN""","R 1725 NE 50TH ST","1748 NE 50TH CT",""
"1760","NE 50TH CT","POMP","33064","","","","","","","220203","=""00000HQW4W""","R 1741 NE 50TH ST","1760 NE 50TH CT",""
"1769","NE 50TH CT","POMP","33064","","","","","","","220203","=""00000HQZPF""","R 4920 NE 14TH WAY","1769 NE 50TH CT",""
"1772","NE 50TH CT","POMP","33064","","","","","","","220203","=""00000HR2DE""","R 1741 NE 50TH ST","1772 NE 50TH CT",""
"1784","NE 50TH CT","POMP","33064","","","","","","","220203","=""00000HR1Y8""","R 1749 NE 50TH ST","1784 NE 50TH CT",""
"1708","NE 50TH ST","POMP","33064","","","","","","","220203","=""00000HQYZR""","R 1716 NE 50TH ST","1708 NE 50TH ST",""
"1709","NE 50TH ST","POMP","33064","","","","","","","220203","=""00000HQXZQ""","R 1709 NE 50TH ST","1709 NE 50TH ST",""
"1716","NE 50TH ST","POMP","33064","","","","","","","220203","=""00000HQZFG""","R 1716 NE 50TH ST","1716 NE 50TH ST",""
"1717","NE 50TH ST","POMP","33064","","","","","","","220203","=""00000HR05X""","R 1709 NE 50TH ST","1717 NE 50TH ST",""
"1724","NE 50TH ST","POMP","33064","","","","","","","220203","=""00000HQW5C""","R 1724 NE 50TH ST","1724 NE 50TH ST",""
"1725","NE 50TH ST","POMP","33064","","","","","","","220203","=""00000HR2E6""","R 1725 NE 50TH ST","1725 NE 50TH ST",""
"1732","NE 50TH ST","POMP","33064","","","","","","","220203","=""00000HR1Y1""","R 1724 NE 50TH ST","1732 NE 50TH ST",""
"1733","NE 50TH ST","POMP","33064","","","","","","","220203","=""00000HQZ02""","R 1725 NE 50TH ST","1733 NE 50TH ST",""
"1740","NE 50TH ST","POMP","33064","","","","","","","220203","=""00000HR0BV""","R 1740 NE 50 ST","1740 NE 50TH ST",""
"1741","NE 50TH ST","POMP","33064","","","","","","","220203","=""00000HQWK9""","R 1741 NE 50TH ST","1741 NE 50TH ST",""
"1749","NE 50TH ST","POMP","33064","","","","","","","220203","=""00000HQYZF""","R 1749 NE 50TH ST","1749 NE 50TH ST",""
"1754","NE 50TH ST","POMP","33064","","","","","","","220203","=""00000HQZFZ""","R 1768 NE 50TH ST","1754 NE 50TH ST",""
"1757","NE 50TH ST","POMP","33064","","","","","","","220203","=""0000BMHIR6""","R 1773 NE 50TH ST","1757 NE 50TH ST",""
"1765","NE 50TH ST","POMP","33064","","","","","","","220203","=""00000HR0QQ""","R 1773 NE 50TH ST","1765 NE 50TH ST",""
"1768","NE 50TH ST","POMP","33064","","","","","","","220203","=""00000HQYUY""","R 1768 NE 50TH ST","1768 NE 50TH ST",""
"1773","NE 50TH ST","POMP","33064","","","","","","","220203","=""00000HR2D8""","R 1773 NE 50TH ST","1773 NE 50TH ST",""
"1800","NE 50TH ST","POMP","33064","","","","","","","220203","=""00000HQYVK""","R 1800 NE 50TH ST","1800 NE 50TH ST",""
"1801","NE 50TH ST","POMP","33064","","","","","","","220203","=""00000HQZW4""","R 1773 NE 50TH ST","1801 NE 50TH ST",""
"1806","NE 50TH ST","POMP","33064","","","","","","","220203","=""00000HR0QZ""","R 1800 NE 50TH ST","1806 NE 50TH ST",""
"1808","NE 50TH ST","POMP","33064","","","","","","","220203","=""00000HQYW7""","R 1800 NE 50TH ST","1808 NE 50TH ST",""
"1809","NE 50TH ST","POMP","33064","","","","","","","220203","=""00000HQZAL""","R 1809 NE 50TH ST","1809 NE 50TH ST",""
"1816","NE 50TH ST","POMP","33064","","","","","","","220203","=""00000HQYZX""","R 1815 NE 49 CT","1816 NE 50TH ST",""
"1817","NE 50TH ST","POMP","33064","","","","","","","220203","=""00000HR0MB""","R 1809 NE 50TH ST","1817 NE 50TH ST",""
"1824","NE 50TH ST","POMP","33064","","","","","","","220203","=""00000HQXXZ""","R 1815 NE 49 CT","1824 NE 50TH ST",""
"1825","NE 50TH ST","POMP","33064","","","","","","","220203","=""00000HQXXN""","1837 NE 50TH ST","1825 NE 50TH ST",""
"1836","NE 50TH ST","POMP","33064","","","","","","","220203","=""00000HR1XU""","1836 NE 50TH ST","1836 NE 50TH ST",""
"1837","NE 50TH ST","POMP","33064","","","","","","","220203","=""00000HR2DF""","1837 NE 50TH ST","1837 NE 50TH ST",""
"1848","NE 50TH ST","POMP","33064","","","","","","","220203","=""00000HQYV6""","1836 NE 50TH ST","1848 NE 50TH ST",""
"1849","NE 50TH ST","POMP","33064","","","","","","","220203","=""00000HQW53""","R 1849 NE 50TH ST","1849 NE 50TH ST",""
"1860","NE 50TH ST","POMP","33064","","","","","","","220203","=""00000HQWL4""","R 1860 NE 50TH ST","1860 NE 50TH ST","Y"
"1861","NE 50TH ST","POMP","33064","","","","","","","220203","=""00000HQWK0""","R 1849 NE 50TH ST","1861 NE 50TH ST",""
"1872","NE 50TH ST","POMP","33064","","","","","","","220203","=""00000HR1J3""","R 1860 NE 50TH ST","1872 NE 50TH ST",""
"1873","NE 50TH ST","POMP","33064","","","","","","","220203","=""00000HQYZ5""","R 1873 NE 50TH ST","1873 NE 50TH ST",""
"1884","NE 50TH ST","POMP","33064","","","","","","","220203","=""00000HR05P""","R 1884 NE 50TH ST","1884 NE 50TH ST",""
"1889","NE 50TH ST","POMP","33064","","","","","","","220203","=""00000HQZRI""","R 1873 NE 50TH ST","1889 NE 50TH ST",""
"1896","NE 50TH ST","POMP","33064","","","","","","","220203","=""00000HQZV9""","R 1884 NE 50TH ST","1896 NE 50TH ST",""
"1516","NE 51ST CT","POMP","33064","","","","","","","220203","=""00000HQZEY""","R 1531 NE 51ST ST","1516 NE 51ST CT",""
"1532","NE 51ST CT","POMP","33064","","","","","","","220203","=""00000HQZQI""","R 1531 NE 51ST ST","1532 NE 51ST CT",""
"1548","NE 51ST CT","POMP","33064","","","","","","","220203","=""00000HQWKL""","R 1548 NE 51ST CT","1548 NE 51ST CT",""
"1564","NE 51ST CT","POMP","33064","","","","","","","220203","=""00000HQYZT""","R 1548 NE 51ST CT","1564 NE 51ST CT",""
"1580","NE 51ST CT","POMP","33064","","","","","","","220203","=""00000HQX0E""","R 1596 NE 51ST CT","1580 NE 51ST CT",""
"1596","NE 51ST CT","POMP","33064","","","","","","","220203","=""00000HQZPY""","R 1596 NE 51ST CT","1596 NE 51ST CT",""
"1616","NE 51ST CT","POMP","33064","","","","","","","220203","=""00000HQWKV""","R 1631 NE 51ST ST","1616 NE 51ST CT",""
"1632","NE 51ST CT","POMP","33064","","","","","","","220203","=""00000HQXY3""","R 1631 NE 51ST ST","1632 NE 51ST CT",""
"1648","NE 51ST CT","POMP","33064","","","","","","","220203","=""00000HQYVL""","R 1663 NE 51TH ST","1648 NE 51ST CT",""
"1664","NE 51ST CT","POMP","33064","","","","","","","220203","=""00000HQZAM""","R 1663 NE 51TH ST","1664 NE 51ST CT",""
"1680","NE 51ST CT","POMP","33064","","","","","","","220203","=""00000HQW5H""","R 1680 NE 51 CT","1680 NE 51ST CT",""
"1696","NE 51ST CT","POMP","33064","","","","","","","220203","=""00000HR0MM""","R 1680 NE 51 CT","1696 NE 51ST CT",""
"1716","NE 51ST CT","POMP","33064","","","","","","","220203","=""00000HR2DL""","R 1715 NE 51TH ST","1716 NE 51ST CT",""
"1732","NE 51ST CT","POMP","33064","","","","","","","220203","=""00000HR06X""","R 1748 NE 51TH CT","1732 NE 51ST CT",""
"1748","NE 51ST CT","POMP","33064","APT","EFCNY","","","","","220203","=""00000HR0M0""","R 1748 NE 51TH CT","1748 NE 51ST CT APT EFCNY",""
"1748","NE 51ST CT","POMP","33064","","","","","","","220203","=""00000HQXZ6""","R 1748 NE 51TH CT","1748 NE 51ST CT",""
"1764","NE 51ST CT","POMP","33064","","","","","","","220203","=""00000HR1HI""","R 1764 NE 51TH CT","1764 NE 51ST CT",""
"1800","NE 51ST CT","POMP","33064","","","","","","","220203","=""00000HQZUX""","R 1764 NE 51TH CT","1800 NE 51ST CT",""
"1816","NE 51ST CT","POMP","33064","","","","","","","220203","=""00000HQXYC""","R 1815 NE 51TH ST","1816 NE 51ST CT",""
"1832","NE 51ST CT","POMP","33064","APT","EFCNY","","","","","220203","=""00000HR1JR""","R 1815 NE 51TH ST","1832 NE 51ST CT APT EFCNY",""
"1832","NE 51ST CT","POMP","33064","","","","","","","220203","=""00000HQYF7""","R 1815 NE 51TH ST","1832 NE 51ST CT",""
"1848","NE 51ST CT","POMP","33064","","","","","","","220203","=""00000HQWL9""","R 1847 NE 51TH ST","1848 NE 51ST CT",""
"1864","NE 51ST CT","POMP","33064","","","","","","","220203","=""00000HQZUV""","R 1847 NE 51TH ST","1864 NE 51ST CT",""
"1490","NE 51ST ST","POMP","33064","","","","","","","220203","=""00000HQZR7""","R 5060 NE 14TH TER","1490 NE 51ST ST",""
"1515","NE 51ST ST","POMP","33064","","","","","","","220203","=""00000HQYF2""","R 1531 NE 51ST ST","1515 NE 51ST ST",""
"1531","NE 51ST ST","POMP","33064","","","","","","","220203","=""00000HQZFT""","R 1531 NE 51ST ST","1531 NE 51ST ST",""
"1547","NE 51ST ST","POMP","33064","","","","","","","220203","=""00000HR066""","R 1548 NE 51ST CT","1547 NE 51ST ST",""
"1563","NE 51ST ST","POMP","33064","","","","","","","220203","=""00000HQW5T""","R 1548 NE 51ST CT","1563 NE 51ST ST",""
"1579","NE 51ST ST","POMP","33064","","","","","","","220203","=""00000HQYZY""","R 1596 NE 51ST CT","1579 NE 51ST ST",""
"1595","NE 51ST ST","POMP","33064","","","","","","","220203","=""00000HQYYZ""","R 1596 NE 51ST CT","1595 NE 51ST ST",""
"1615","NE 51ST ST","POMP","33064","","","","","","","220203","=""00000HQZPX""","R 1631 NE 51ST ST","1615 NE 51ST ST",""
"1631","NE 51ST ST","POMP","33064","","","","","","","220203","=""00000HQYZC""","R 1631 NE 51ST ST","1631 NE 51ST ST",""
"1647","NE 51ST ST","POMP","33064","","","","","","","220203","=""00000HR2DR""","R 1663 NE 51TH ST","1647 NE 51ST ST",""
"1663","NE 51ST ST","POMP","33064","","","","","","","220203","=""00000HR2DW""","R 1663 NE 51TH ST","1663 NE 51ST ST",""
"1678","NE 51ST ST","POMP","33064","","","","","","","220203","=""00000HQYVD""","R 1765 NE 50TH ST","1678 NE 51ST ST",""
"1679","NE 51ST ST","POMP","33064","","","","","","","220203","=""00000HR2DJ""","R 1680 NE 51 CT","1679 NE 51ST ST",""
"1694","NE 51ST ST","POMP","33064","","","","","","","220203","=""00000HR2D4""","R 1765 NE 50TH ST","1694 NE 51ST ST",""
"1695","NE 51ST ST","POMP","33064","","","","","","","220203","=""00000HQXY7""","R 1680 NE 51 CT","1695 NE 51ST ST",""
"1700","NE 51ST ST","POMP","33064","","","","","","","220203","=""00000HQZBQ""","R 1773 NE 50TH ST","1700 NE 51ST ST",""
"1714","NE 51ST ST","POMP","33064","","","","","","","220203","=""00000HQZFJ""","R 1773 NE 50TH ST","1714 NE 51ST ST",""
"1715","NE 51ST ST","POMP","33064","","","","","","","220203","=""00000HR0QU""","R 1715 NE 51TH ST","1715 NE 51ST ST",""
"1730","NE 51ST ST","POMP","33064","","","","","","","220203","=""00000HQZVI""","R 1809 NE 50TH ST","1730 NE 51ST ST",""
"1731","NE 51ST ST","POMP","33064","","","","","","","220203","=""00000HQYZO""","R 1748 NE 51TH CT","1731 NE 51ST ST",""
"1746","NE 51ST ST","POMP","33064","","","","","","","220203","=""00000HR05M""","R 1809 NE 50TH ST","1746 NE 51ST ST",""
"1747","NE 51ST ST","POMP","33064","","","","","","","220203","=""00000HR07M""","R 1748 NE 51TH CT","1747 NE 51ST ST",""
"1762","NE 51ST ST","POMP","33064","","","","","","","220203","=""00000HR1IO""","1837 NE 50TH ST","1762 NE 51ST ST",""
"1763","NE 51ST ST","POMP","33064","","","","","","","220203","=""00000HQW5N""","R 1764 NE 51TH CT","1763 NE 51ST ST",""
"1800","NE 51ST ST","POMP","33064","","","","","","","220203","=""00000HQZS4""","1837 NE 50TH ST","1800 NE 51ST ST",""
"1801","NE 51ST ST","POMP","33064","","","","","","","220203","=""00000HR2E3""","R 1764 NE 51TH CT","1801 NE 51ST ST",""
"1814","NE 51ST ST","POMP","33064","","","","","","","220203","=""00000HQZVL""","R 1849 NE 50TH ST","1814 NE 51ST ST",""
"1815","NE 51ST ST","POMP","33064","","","","","","","220203","=""00000HQZFC""","R 1815 NE 51TH ST","1815 NE 51ST ST",""
"1830","NE 51ST ST","POMP","33064","","","","","","","220203","=""00000HQYUE""","R 1849 NE 50TH ST","1830 NE 51ST ST",""
"1831","NE 51ST ST","POMP","33064","APT","EFCNY","","","","","220203","=""00000HR0BE""","R 1815 NE 51TH ST","1831 NE 51ST ST APT EFCNY",""
"1831","NE 51ST ST","POMP","33064","","","","","","","220203","=""00000HQXY5""","R 1815 NE 51TH ST","1831 NE 51ST ST",""
"1846","NE 51ST ST","POMP","33064","","","","","","","220203","=""00000HQW5V""","R 1873 NE 50TH ST","1846 NE 51ST ST",""
"1847","NE 51ST ST","POMP","33064","","","","","","","220203","=""00000HR0QN""","R 1847 NE 51TH ST","1847 NE 51ST ST",""
"1862","NE 51ST ST","POMP","33064","","","","","","","220203","=""00000HQYUC""","R 1873 NE 50TH ST","1862 NE 51ST ST",""
"2050","NE 51ST ST","POMP","33064","","","","","","","220203","=""00000HQXZJ""","S 5083 N FEDERAL HWY","2050 NE 51ST ST",""
