House Number;Street Name;Community;Zip Code;Unit Type;Unit;Floor Type;Floor;Building Type;Building;DA/PSA;OVALS Address ID;Primary_Term_Address;FAC_ADDR;Working TN Status
7400;NW 21ST CT;MRGT;33063;;;;;;;121404;000006OVXF;R 7420 NW 21ST CT;7400 NW 21ST CT;
7401;NW 21ST CT;MRGT;33063;;;;;;;121404;000006P66R;F 7421 NW 21ST CT;7401 NW 21ST CT;
7420;NW 21ST CT;MRGT;33063;;;;;;;121404;000006OQR1;R 7420 NW 21ST CT;7420 NW 21ST CT;
7421;NW 21ST CT;MRGT;33063;;;;;;;121404;000006OZ6O;F 7421 NW 21ST CT;7421 NW 21ST CT;
7440;NW 21ST CT;MRGT;33063;;;;;;;121404;000006OYGO;R 7391 NW 21ST ST;7440 NW 21ST CT;
7441;NW 21ST CT;MRGT;33063;;;;;;;121404;000006OUDU;F 7441.2 NW 21ST CT;7441 NW 21ST CT;
7460;NW 21ST CT;MRGT;33063;;;;;;;121404;000006P0HO;R 7391 NW 21ST ST;7460 NW 21ST CT;
7461;NW 21ST CT;MRGT;33063;;;;;;;121404;000006OZ4M;F 7441 NW 21ST CT;7461 NW 21ST CT;
7480;NW 21ST CT;MRGT;33063;;;;;;;121404;000006PCR2;7481 NW 21 ST;7480 NW 21ST CT;
7481;NW 21ST CT;MRGT;33063;;;;;;;121404;000006P09E;F 7481 NW 21ST CT;7481 NW 21ST CT;
7500;NW 21ST CT;MRGT;33063;;;;;;;121404;000006PAIO;7481 NW 21 ST;7500 NW 21ST CT;
7501;NW 21ST CT;MRGT;33063;;;;;;;121404;000006PDC1;F 7481 NW 21ST CT;7501 NW 21ST CT;
7520;NW 21ST CT;MRGT;33063;;;;;;;121404;000006OZEG;R 7511 NW 21ST ST;7520 NW 21ST CT;
7521;NW 21ST CT;MRGT;33063;;;;;;;121404;000006P8MB;F 7541 NW 21ST CT;7521 NW 21ST CT;
7540;NW 21ST CT;MRGT;33063;;;;;;;121404;000006P9XQ;R 7511 NW 21ST ST;7540 NW 21ST CT;
7541;NW 21ST CT;MRGT;33063;;;;;;;121404;000006P1QE;F 7541 NW 21ST CT;7541 NW 21ST CT;
7560;NW 21ST CT;MRGT;33063;;;;;;;121404;000006OV3A;R 7580 NW 21ST CT;7560 NW 21ST CT;
7561;NW 21ST CT;MRGT;33063;;;;;;;121404;000006P4O7;F 2140 NW 76TH AV;7561 NW 21ST CT;
7580;NW 21ST CT;MRGT;33063;;;;;;;121404;000006OT6R;R 7580 NW 21ST CT;7580 NW 21ST CT;
7581;NW 21ST CT;MRGT;33063;;;;;;;121404;000006PFSS;F 2140 NW 76TH AV;7581 NW 21ST CT;
7676;NW 21ST CT;MRGT;33063;;;;;;;121404;000006PE0O;R 7679 NW 21ST ST;7676 NW 21ST CT;
7685;NW 21ST CT;MRGT;33063;;;;;;;121404;000006P5R3;F 7685 NW 21ST CT;7685 NW 21ST CT;
7686;NW 21ST CT;MRGT;33063;;;;;;;121404;000006P1AH;R 7679 NW 21ST ST;7686 NW 21ST CT;
7695;NW 21ST CT;MRGT;33063;;;;;;;121404;000006OW45;F 7705 NW 21ST CT;7695 NW 21ST CT;
7696;NW 21ST CT;MRGT;33063;;;;;;;121404;000006P440;R 7699 NW 21ST ST;7696 NW 21ST CT;
7705;NW 21ST CT;MRGT;33063;;;;;;;121404;000006P4E4;F 7705 NW 21ST CT;7705 NW 21ST CT;
7706;NW 21ST CT;MRGT;33063;;;;;;;121404;000006P2MF;R 7719 NW 21ST ST;7706 NW 21ST CT;
7715;NW 21ST CT;MRGT;33063;;;;;;;121404;000006P8MX;F 7725 NW 21ST CT;7715 NW 21ST CT;
7716;NW 21ST CT;MRGT;33063;;;;;;;121404;000006P31J;R 7719 NW 21ST ST;7716 NW 21ST CT;
7725;NW 21ST CT;MRGT;33063;;;;;;;121404;000006OYWQ;F 7725 NW 21ST CT;7725 NW 21ST CT;
7726;NW 21ST CT;MRGT;33063;;;;;;;121404;000006P0MC;R 7729 NW 21ST ST;7726 NW 21ST CT;
7301;NW 21ST ST;MRGT;33063;;;;;;;121404;000006P972;R 7420 NW 21ST CT;7301 NW 21ST ST;
7302;NW 21ST ST;MRGT;33063;;;;;;;121404;000006P2CX;R 7302 NW 21ST ST;7302 NW 21ST ST;
7328;NW 21ST ST;MRGT;33063;;;;;;;121404;000006OY8K;R 7302 NW 21ST ST;7328 NW 21ST ST;
7331;NW 21ST ST;MRGT;33063;;;;;;;121404;000006OS07;R 7420 NW 21ST CT;7331 NW 21ST ST;
7354;NW 21ST ST;MRGT;33063;;;;;;;121404;000006P3ES;R 7354 NW 21ST ST;7354 NW 21ST ST;
7361;NW 21ST ST;MRGT;33063;;;;;;;121404;000006OTUZ;R 7391 NW 21ST ST;7361 NW 21ST ST;
7380;NW 21ST ST;MRGT;33063;;;;;;;121404;000006P037;R 7354 NW 21ST ST;7380 NW 21ST ST;
7391;NW 21ST ST;MRGT;33063;;;;;;;121404;000006OZUN;R 7391 NW 21ST ST;7391 NW 21ST ST;
7406;NW 21ST ST;MRGT;33063;;;;;;;121404;000006OXL8;R 7406 NW 21ST ST;7406 NW 21ST ST;
7421;NW 21ST ST;MRGT;33063;;;;;;;121404;000006OY9J;7481 NW 21 ST;7421 NW 21ST ST;
7432;NW 21ST ST;MRGT;33063;;;;;;;121404;000006P81W;R 7406 NW 21ST ST;7432 NW 21ST ST;
7451;NW 21ST ST;MRGT;33063;;;;;;;121404;000006P57Z;7481 NW 21 ST;7451 NW 21ST ST;
7458;NW 21ST ST;MRGT;33063;;;;;;;121404;000006P840;R 7458 NW 21ST ST;7458 NW 21ST ST;
7481;NW 21ST ST;MRGT;33063;;;;;;;121404;000006PF4D;R 7511 NW 21ST ST;7481 NW 21ST ST;
7484;NW 21ST ST;MRGT;33063;;;;;;;121404;000006P2PH;R 7458 NW 21ST ST;7484 NW 21ST ST;Y
7510;NW 21ST ST;MRGT;33063;;;;;;;121404;000006P4IW;R 7510 NW 21ST ST;7510 NW 21ST ST;
7511;NW 21ST ST;MRGT;33063;;;;;;;121404;000006OZW7;R 7511 NW 21ST ST;7511 NW 21ST ST;
7536;NW 21ST ST;MRGT;33063;;;;;;;121404;000006P7FE;R 7510 NW 21ST ST;7536 NW 21ST ST;
7541;NW 21ST ST;MRGT;33063;;;;;;;121404;000006P3HS;R 7580 NW 21ST CT;7541 NW 21ST ST;
7562;NW 21ST ST;MRGT;33063;;;;;;;121404;000006P5U9;R 7562 NW 21ST ST;7562 NW 21ST ST;
7581;NW 21ST ST;MRGT;33063;;;;;;;121404;000006P3XI;R 7580 NW 21ST CT;7581 NW 21ST ST;
7588;NW 21ST ST;MRGT;33063;;;;;;;121404;000006OSB6;R 7562 NW 21ST ST;7588 NW 21ST ST;
7648;NW 21ST ST;MRGT;33063;;;;;;;121404;000006P5RK;R 7648 NW 21ST ST;7648 NW 21ST ST;
7658;NW 21ST ST;MRGT;33063;;;;;;;121404;000006OV45;R 7648 NW 21ST ST;7658 NW 21ST ST;
7659;NW 21ST ST;MRGT;33063;;;;;;;121404;000006P5EE;R 7669 NW 21ST ST;7659 NW 21ST ST;
7660;NW 21ST ST;MRGT;33063;;;;;;;121404;000006P5OM;R 7669 NW 21ST ST;7660 NW 21ST ST;
7668;NW 21ST ST;MRGT;33063;;;;;;;121404;000006P3E0;R 7668 NW 21ST ST;7668 NW 21ST ST;
7669;NW 21ST ST;MRGT;33063;;;;;;;121404;000006P48I;R 7669 NW 21ST ST;7669 NW 21ST ST;
7678;NW 21ST ST;MRGT;33063;;;;;;;121404;000006PE0J;R 7668 NW 21ST ST;7678 NW 21ST ST;Y
7679;NW 21ST ST;MRGT;33063;;;;;;;121404;000006P96C;R 7689 NW 21ST ST;7679 NW 21ST ST;
7688;NW 21ST ST;MRGT;33063;;;;;;;121404;000006P4PC;R 7688 NW 21ST ST;7688 NW 21ST ST;
7689;NW 21ST ST;MRGT;33063;;;;;;;121404;000006P456;R 7689 NW 21ST ST;7689 NW 21ST ST;
7698;NW 21ST ST;MRGT;33063;;;;;;;121404;000006OYML;R 7688 NW 21ST ST;7698 NW 21ST ST;
7699;NW 21ST ST;MRGT;33063;;;;;;;121404;000006P3B8;R 7699 NW 21ST ST;7699 NW 21ST ST;Y
7708;NW 21ST ST;MRGT;33063;;;;;;;121404;000006P2G0;F 7718 NW 21ST ST;7708 NW 21ST ST;
7709;NW 21ST ST;MRGT;33063;;;;;;;121404;000006P3HI;R 7719 NW 21ST ST;7709 NW 21ST ST;
7718;NW 21ST ST;MRGT;33063;;;;;;;121404;000006OY9S;F 7718 NW 21ST ST;7718 NW 21ST ST;
7719;NW 21ST ST;MRGT;33063;;;;;;;121404;000006OQZW;R 7719 NW 21ST ST;7719 NW 21ST ST;
7728;NW 21ST ST;MRGT;33063;;;;;;;121404;000006P2B2;F 7738 NW 21ST ST;7728 NW 21ST ST;
7729;NW 21ST ST;MRGT;33063;;;;;;;121404;000006P086;R 7729 NW 21ST ST;7729 NW 21ST ST;
7738;NW 21ST ST;MRGT;33063;;;;;;;121404;000006P1T8;F 7738 NW 21ST ST;7738 NW 21ST ST;
7739;NW 21ST ST;MRGT;33063;;;;;;;121404;000006P5KV;R 7729 NW 21ST ST;7739 NW 21ST ST;
7748;NW 21ST ST;MRGT;33063;;;;;;;121404;000006P3FV;F 7758 NW 21ST ST;7748 NW 21ST ST;
7758;NW 21ST ST;MRGT;33063;;;;;;;121404;000006P1ZV;F 7758 NW 21ST ST;7758 NW 21ST ST;
7379;NW 22ND PL;MRGT;33063;;;;;;;121404;000006OXQ6;F 7379 NW 22ND PL;7379 NW 22ND PL;
7389;NW 22ND PL;MRGT;33063;;;;;;;121404;000006OWK3;F 7379 NW 22ND PL;7389 NW 22ND PL;
7390;NW 22ND PL;MRGT;33063;;;;;;;121404;000006P40R;S 7398 NW 22ND PL;7390 NW 22ND PL;
7399;NW 22ND PL;MRGT;33063;;;;;;;121404;000006P544;F 7399 NW 22ND PL;7399 NW 22ND PL;
7405;NW 22ND ST;MRGT;33063;;;;;;;121404;000006OWZI;R 7410 NW 23RD ST;7405 NW 22ND ST;
7425;NW 22ND ST;MRGT;33063;;;;;;;121404;000006PEMM;R 7430 NW 23RD ST;7425 NW 22ND ST;
7426;NW 22ND ST;MRGT;33063;;;;;;;121404;000006P2OZ;S 7426 NW 22ND ST;7426 NW 22ND ST;
7436;NW 22ND ST;MRGT;33063;;;;;;;121404;000006P00M;S 7426 NW 22ND ST;7436 NW 22ND ST;
7445;NW 22ND ST;MRGT;33063;;;;;;;121404;000006P3LT;R 7430 NW 23RD ST;7445 NW 22ND ST;
7456;NW 22ND ST;MRGT;33063;;;;;;;121404;000006OV2A;F 2189 NW 74TH CIR;7456 NW 22ND ST;
7465;NW 22ND ST;MRGT;33063;;;;;;;121404;000006P5AC;R 7470 NW 23RD ST;7465 NW 22ND ST;
7466;NW 22ND ST;MRGT;33063;;;;;;;121404;000006P6X3;F 2189 NW 74TH CIR;7466 NW 22ND ST;Y
7485;NW 22ND ST;MRGT;33063;;;;;;;121404;000006P5RX;R 7470 NW 23RD ST;7485 NW 22ND ST;
7486;NW 22ND ST;MRGT;33063;;;;;;;121404;000006PFQ7;S 7486 NW 22ND ST;7486 NW 22ND ST;
7615;NW 22ND ST;MRGT;33063;;;;;;;121404;000006P337;F 7615.1 NW 22ND ST;7615 NW 22ND ST;
7625;NW 22ND ST;MRGT;33063;;;;;;;121404;000006P0DI;F 7635 NW 22ND ST;7625 NW 22ND ST;
7635;NW 22ND ST;MRGT;33063;;;;;;;121404;000006P4YZ;F 7635 NW 22ND ST;7635 NW 22ND ST;
7645;NW 22ND ST;MRGT;33063;;;;;;;121404;000006P02W;F 7655 NW 22ND ST;7645 NW 22ND ST;
7655;NW 22ND ST;MRGT;33063;;;;;;;121404;000006P5ZW;F 7655 NW 22ND ST;7655 NW 22ND ST;
7665;NW 22ND ST;MRGT;33063;;;;;;;121404;000006P11A;F 7665 NW 22ND ST;7665 NW 22ND ST;
7675;NW 22ND ST;MRGT;33063;;;;;;;121404;000006P3U8;F 7665 NW 22ND ST;7675 NW 22ND ST;
7410;NW 23RD ST;MRGT;33063;;;;;;;121404;000006P4G2;R 7410 NW 23RD ST;7410 NW 23RD ST;
7411;NW 23RD ST;MRGT;33063;;;;;;;121404;000006P54K;F 7411 NW 23RD ST;7411 NW 23RD ST;
7430;NW 23RD ST;MRGT;33063;;;;;;;121404;000006PBO0;R 7410 NW 23RD ST;7430 NW 23RD ST;
7431;NW 23RD ST;MRGT;33063;;;;;;;121404;000006PCS9;F 7431 NW 23RD ST;7431 NW 23RD ST;
7450;NW 23RD ST;MRGT;33063;;;;;;;121404;000006P0R2;R 7450 NW 23RD ST;7450 NW 23RD ST;
7451;NW 23RD ST;MRGT;33063;;;;;;;121404;000006P0NH;F 7431 NW 23RD ST;7451 NW 23RD ST;
7470;NW 23RD ST;MRGT;33063;;;;;;;121404;000006OYF2;R 7450 NW 23RD ST;7470 NW 23RD ST;
7471;NW 23RD ST;MRGT;33063;;;;;;;121404;000006OQLM;F 7471 NW 23RD ST;7471 NW 23RD ST;Y
7490;NW 23RD ST;MRGT;33063;;;;;;;121404;000006P9U6;R 7470 NW 23RD ST;7490 NW 23RD ST;
7491;NW 23RD ST;MRGT;33063;;;;;;;121404;000006ORF4;F 7491 NW 23RD ST;7491 NW 23RD ST;
7511;NW 23RD ST;MRGT;33063;;;;;;;121404;000006OQ8T;F 7511.1 NW 23RD ST;7511 NW 23RD ST;
7531;NW 23RD ST;MRGT;33063;;;;;;;121404;000006PDVY;F 7511.1 NW 23RD ST;7531 NW 23RD ST;
7551;NW 23RD ST;MRGT;33063;;;;;;;121404;000006P5B9;F 2299 NW 75TH AV;7551 NW 23RD ST;
7601;NW 23RD ST;MRGT;33063;;;;;;;121404;000006OZEO;R 7611 NW 23RD ST;7601 NW 23RD ST;
7610;NW 23RD ST;MRGT;33063;;;;;;;121404;000006P00V;F 7620 NW 23RD ST;7610 NW 23RD ST;Y
7611;NW 23RD ST;MRGT;33063;;;;;;;121404;000006PFQY;R 7611 NW 23RD ST;7611 NW 23RD ST;
7620;NW 23RD ST;MRGT;33063;;;;;;;121404;000006OZTB;F 7620.2 NW 23RD ST;7620 NW 23RD ST;
7621;NW 23RD ST;MRGT;33063;;;;;;;121404;000006PCS7;R 7631 NW 23RD ST;7621 NW 23RD ST;
7630;NW 23RD ST;MRGT;33063;;;;;;;121404;000006P394;F 7640 NW 23RD ST;7630 NW 23RD ST;
7631;NW 23RD ST;MRGT;33063;;;;;;;121404;000006P5O4;R 7631 NW 23RD ST;7631 NW 23RD ST;
7640;NW 23RD ST;MRGT;33063;;;;;;;121404;000006P3XG;F 7640 NW 23RD ST;7640 NW 23RD ST;
7641;NW 23RD ST;MRGT;33063;;;;;;;121404;000006OTPM;R 7651 NW 23RD ST;7641 NW 23RD ST;
7650;NW 23RD ST;MRGT;33063;;;;;;;121404;000006P4UC;F 7650 NW 23RD ST;7650 NW 23RD ST;
7651;NW 23RD ST;MRGT;33063;;;;;;;121404;000006P500;R 7651 NW 23RD ST;7651 NW 23RD ST;
7660;NW 23RD ST;MRGT;33063;;;;;;;121404;000006OY6K;F 7650 NW 23RD ST;7660 NW 23RD ST;
7661;NW 23RD ST;MRGT;33063;;;;;;;121404;000006P843;R 7671 NW 23RD ST;7661 NW 23RD ST;
7670;NW 23RD ST;MRGT;33063;;;;;;;121404;000006P490;F 7670 NW 23RD ST;7670 NW 23RD ST;
7671;NW 23RD ST;MRGT;33063;;;;;;;121404;000006P6LF;R 7701 NW 23RD ST;7671 NW 23RD ST;
7680;NW 23RD ST;MRGT;33063;;;;;;;121404;000006OTQQ;F 7670 NW 23RD ST;7680 NW 23RD ST;
7681;NW 23RD ST;MRGT;33063;;;;;;;121404;000006OYE0;R 7691 NW 23RD CT;7681 NW 23RD ST;
7690;NW 23RD ST;MRGT;33063;;;;;;;121404;000006OX0Z;F 7690 NW 23RD ST;7690 NW 23RD ST;
7691;NW 23RD ST;MRGT;33063;;;;;;;121404;000006PDCW;R 7691 NW 23RD CT;7691 NW 23RD ST;
7700;NW 23RD ST;MRGT;33063;;;;;;;121404;000006P08P;F 7690 NW 23RD ST;7700 NW 23RD ST;
7701;NW 23RD ST;MRGT;33063;;;;;;;121404;000006OQP4;R 7701 NW 23RD ST;7701 NW 23RD ST;
7710;NW 23RD ST;MRGT;33063;;;;;;;121404;000006PDDZ;F 7710 NW 23RD ST;7710 NW 23RD ST;
7711;NW 23RD ST;MRGT;33063;;;;;;;121404;000006P32S;R 7701 NW 23RD ST;7711 NW 23RD ST;
7720;NW 23RD ST;MRGT;33063;;;;;;;121404;000006OPV3;S 7720 NW 23RD ST;7720 NW 23RD ST;
7721;NW 23RD ST;MRGT;33063;;;;;;;121404;000006P7J3;R 7721 NW 23RD ST;7721 NW 23RD ST;
7731;NW 23RD ST;MRGT;33063;;;;;;;121404;000006OWKN;R 7721 NW 23RD ST;7731 NW 23RD ST;
7741;NW 23RD ST;MRGT;33063;;;;;;;121404;000006PF29;R 7741 NW 23RD ST;7741 NW 23RD ST;
7751;NW 23RD ST;MRGT;33063;;;;;;;121404;000006OU72;R 7741 NW 23RD ST;7751 NW 23RD ST;
7761;NW 23RD ST;MRGT;33063;;;;;;;121404;000006OYKY;F 7771 NW 23RD ST;7761 NW 23RD ST;
7771;NW 23RD ST;MRGT;33063;;;;;;;121404;000006OYT8;F 7771 NW 23RD ST;7771 NW 23RD ST;
2104;NW 73RD AV;MRGT;33063;;;;;;;121404;000006OZSV;S 7398 NW 22ND PL;2104 NW 73RD AV;
2123;NW 73RD AV;MRGT;33063;;;;;;;121404;000006P9UL;F 2133 NW 73RD AV;2123 NW 73RD AV;
2133;NW 73RD AV;MRGT;33063;;;;;;;121404;000006P70Q;F 2133 NW 73RD AV;2133 NW 73RD AV;
2172;NW 73RD AV;MRGT;33063;;;;;;;121404;000006OR6D;F 2172 NW 73RD AV;2172 NW 73RD AV;
2173;NW 73RD AV;MRGT;33063;;;;;;;121404;000006PB1J;S 7406 NW 22ND ST;2173 NW 73RD AV;
2183;NW 73RD AV;MRGT;33063;;;;;;;121404;000006PEMO;S 7406 NW 22ND ST;2183 NW 73RD AV;
2192;NW 73RD AV;MRGT;33063;;;;;;;121404;000006P1VB;F 2212 NW 73RD AV;2192 NW 73RD AV;
2212;NW 73RD AV;MRGT;33063;;;;;;;121404;000006OZX7;F 2212 NW 73RD AV;2212 NW 73RD AV;
2232;NW 73RD AV;MRGT;33063;;;;;;;121404;000006OWV6;F 2252 NW 73RD AV;2232 NW 73RD AV;
2252;NW 73RD AV;MRGT;33063;;;;;;;121404;000006P4MA;F 2252 NW 73RD AV;2252 NW 73RD AV;
2272;NW 73RD AV;MRGT;33063;;;;;;;121404;000006P7M7;F 2272 NW 73RD AV;2272 NW 73RD AV;
2292;NW 73RD AV;MRGT;33063;;;;;;;121404;000006PB20;F 2272 NW 73RD AV;2292 NW 73RD AV;
2102;NW 73RD LN;MRGT;33063;;;;;;;121404;000006OXF0;F 2102 NW 73RD LN;2102 NW 73RD LN;
2103;NW 73RD LN;MRGT;33063;;;;;;;121404;000006P0K1;F 2113 NW 73RD LN;2103 NW 73RD LN;
2112;NW 73RD LN;MRGT;33063;;;;;;;121404;000006P5Z0;F 2102 NW 73RD LN;2112 NW 73RD LN;
2113;NW 73RD LN;MRGT;33063;;;;;;;121404;000006P8RK;F 2113 NW 73RD LN;2113 NW 73RD LN;
2122;NW 73RD LN;MRGT;33063;;;;;;;121404;000006OYWX;F 2132 NW 73RD LN;2122 NW 73RD LN;
2132;NW 73RD LN;MRGT;33063;;;;;;;121404;000006P0QJ;F 2132 NW 73RD LN;2132 NW 73RD LN;
2178;NW 75TH AV;MRGT;33063;;;;;;;121404;000006OXTS;F 2198 NW 75TH AV;2178 NW 75TH AV;
2179;NW 75TH AV;MRGT;33063;;;;;;;121404;000006ORL1;F 2199 NW 75TH AV;2179 NW 75TH AV;
2198;NW 75TH AV;MRGT;33063;;;;;;;121404;000006P5S1;F 2198 NW 75TH AV;2198 NW 75TH AV;
2199;NW 75TH AV;MRGT;33063;;;;;;;121404;000006P3SA;F 2199 NW 75TH AV;2199 NW 75TH AV;
2219;NW 75TH AV;MRGT;33063;;;;;;;121404;000006OSX7;F 2219 NW 75TH AV;2219 NW 75TH AV;
2239;NW 75TH AV;MRGT;33063;;;;;;;121404;000006P80W;F 2219 NW 75TH AV;2239 NW 75TH AV;
2259;NW 75TH AV;MRGT;33063;;;;;;;121404;000006P5IU;F 2279 NW 75TH AV;2259 NW 75TH AV;
2279;NW 75TH AV;MRGT;33063;;;;;;;121404;000006OXJ7;F 2279 NW 75TH AV;2279 NW 75TH AV;
2299;NW 75TH AV;MRGT;33063;;;;;;;121404;000006P3LG;F 2299 NW 75TH AV;2299 NW 75TH AV;
2100;NW 76TH AV;MRGT;33063;;;;;;;121404;000006PC7B;R 7562 NW 21ST ST;2100 NW 76TH AV;
2101;NW 76TH AV;MRGT;33063;;;;;;;121404;000006PCUI;R 2101 NW 76TH AV;2101 NW 76TH AV;
2111;NW 76TH AV;MRGT;33063;;;;;;;121404;000006P4DT;R 2121 NW 76TH AV;2111 NW 76TH AV;
2121;NW 76TH AV;MRGT;33063;;;;;;;121404;000006P4D1;R 2121 NW 76TH AV;2121 NW 76TH AV;
2131;NW 76TH AV;MRGT;33063;;;;;;;121404;000006OS3P;2131 NW 76TH AV;2131 NW 76TH AV;
2141;NW 76TH AV;MRGT;33063;;;;;;;121404;000006P1VY;R 2151 NW 76TH AV;2141 NW 76TH AV;
2151;NW 76TH AV;MRGT;33063;;;;;;;121404;000006P39Q;R 2151 NW 76TH AV;2151 NW 76TH AV;
2160;NW 76TH AV;MRGT;33063;;;;;;;121404;000006OX5T;F 2160 NW 76TH AV;2160 NW 76TH AV;
2161;NW 76TH AV;MRGT;33063;;;;;;;121404;000006OSDS;R 2161 NW 76TH AV;2161 NW 76TH AV;
2171;NW 76TH AV;MRGT;33063;;;;;;;121404;000006P1K4;R 2171 NW 76TH AV;2171 NW 76TH AV;
2180;NW 76TH AV;MRGT;33063;;;;;;;121404;000006PEZZ;F 2160 NW 76TH AV;2180 NW 76TH AV;
2181;NW 76TH AV;MRGT;33063;;;;;;;121404;000006OWNC;R 2181 NW 76TH AV;2181 NW 76TH AV;
2191;NW 76TH AV;MRGT;33063;;;;;;;121404;000006OYMZ;R 2181 NW 76TH AV;2191 NW 76TH AV;
2200;NW 76TH AV;MRGT;33063;;;;;;;121404;000006OYVF;F 2200 NW 76TH AV;2200 NW 76TH AV;
2220;NW 76TH AV;MRGT;33063;;;;;;;121404;000006P4VY;F 2200 NW 76TH AV;2220 NW 76TH AV;
2240;NW 76TH AV;MRGT;33063;;;;;;;121404;000006OUKX;R 7631 NW 23RD ST;2240 NW 76TH AV;
2260;NW 76TH AV;MRGT;33063;;;;;;;121404;000006OT8F;F 2260 NW 76TH AV;2260 NW 76TH AV;
2280;NW 76TH AV;MRGT;33063;;;;;;;121404;000006P4S5;F 2260 NW 76TH AV;2280 NW 76TH AV;
2100;NW 76TH TER;MRGT;33063;;;;;;;121404;000006OZPQ;R 2101 NW 76TH AV;2100 NW 76TH TER;
2111;NW 76TH TER;MRGT;33063;;;;;;;121404;000006P87J;R 7669 NW 21ST ST;2111 NW 76TH TER;
2120;NW 76TH TER;MRGT;33063;;;;;;;121404;000006OZR6;R 2131 NW 76TH AV;2120 NW 76TH TER;Y
2121;NW 76TH TER;MRGT;33063;;;;;;;121404;000006OYDW;R 2131 NW 76TH TER;2121 NW 76TH TER;
2131;NW 76TH TER;MRGT;33063;;;;;;;121404;000006P45D;R 2131 NW 76TH TER;2131 NW 76TH TER;
2140;NW 76TH TER;MRGT;33063;;;;;;;121404;000006OZN7;2131 NW 76TH AV;2140 NW 76TH TER;
2141;NW 76TH TER;MRGT;33063;;;;;;;121404;000006P2D2;R 2151 NW 76TH TER;2141 NW 76TH TER;
2141;NW 76TH TER;MRGT;33063;;;;;;;121404;000006P2D2;R 2151 NW 76TH TER;2141 NW 76TH TER;Y
2150;NW 76TH TER;MRGT;33063;;;;;;;121404;000006P99J;R 2151 NW 76TH AV;2150 NW 76TH TER;
2160;NW 76TH TER;MRGT;33063;;;;;;;121404;000006OX8G;F 7379 NW 22ND PL;2160 NW 76TH TER;
2161;NW 76TH TER;MRGT;33063;;;;;;;121404;000006P0WU;R 2151 NW 76TH TER;2161 NW 76TH TER;
2170;NW 76TH TER;MRGT;33063;;;;;;;121404;000006P5M6;R 2161.1 NW 76TH AV;2170 NW 76TH TER;
2180;NW 76TH TER;MRGT;33063;;;;;;;121404;000006PE1C;R 2181 NW 76TH AV;2180 NW 76TH TER;
2181;NW 76TH TER;MRGT;33063;;;;;;;121404;000006P6WQ;R 2181 NW 76TH TER;2181 NW 76TH TER;
2190;NW 76TH TER;MRGT;33063;;;;;;;121404;000006OZWG;R 2181 NW 76TH AV;2190 NW 76TH TER;
2116;NW 76TH WAY;MRGT;33063;;;;;;;121404;000006P7L8;R 2141 NW 76TH TER;2116 NW 76TH WAY;
2136;NW 76TH WAY;MRGT;33063;;;;;;;121404;000006P1YV;R 2141 NW 76TH TER;2136 NW 76TH WAY;
2155;NW 76TH WAY;MRGT;33063;;;;;;;121404;000006OZCT;F 2125 NW 76TH WAY;2155 NW 76TH WAY;
2156;NW 76TH WAY;MRGT;33063;;;;;;;121404;000006P5UC;R 2181 NW 76TH TER;2156 NW 76TH WAY;
2131;NW 77TH TER;MRGT;33063;;;;;;;121404;000006OSQV;R 2122 NW 78TH AV;2131 NW 77TH TER;
2161;NW 77TH TER;MRGT;33063;;;;;;;121404;000006P26I;R 2122 NW 78TH AV;2161 NW 77TH TER;
2162;NW 77TH TER;MRGT;33063;;;;;;;121404;000006P04X;F 2192 NW 77TH TER;2162 NW 77TH TER;
2191;NW 77TH TER;MRGT;33063;;;;;;;121404;000006PEIM;R 2212 NW 78TH AV;2191 NW 77TH TER;
2192;NW 77TH TER;MRGT;33063;;;;;;;121404;000006PF5U;F 2192 NW 77TH TER;2192 NW 77TH TER;
2222;NW 77TH TER;MRGT;33063;;;;;;;121404;000006P32K;S 7720 NW 23RD ST;2222 NW 77TH TER;
2241;NW 77TH TER;MRGT;33063;;;;;;;121404;000006OZF7;R 2212 NW 78TH AV;2241 NW 77TH TER;
2251;NW 77TH TER;MRGT;33063;;;;;;;121404;000006OZTY;R 2242 NW 78TH AV;2251 NW 77TH TER;
2111;NW 78TH AV;MRGT;33063;;;;;;;121404;000006OR6F;F 2111 NW 78TH AV;2111 NW 78TH AV;
2112;NW 78TH AV;MRGT;33063;;;;;;;121404;000006P5DP;R 2112 NW 78TH AV;2112 NW 78TH AV;
2121;NW 78TH AV;MRGT;33063;;;;;;;121404;000006P1TI;F 2111 NW 78TH AV;2121 NW 78TH AV;
2122;NW 78TH AV;MRGT;33063;;;;;;;121404;000006OUUG;R 2152 NW 78TH AV;2122 NW 78TH AV;
2151;NW 78TH AV;MRGT;33063;;;;;;;121404;000006OXAU;F 2151 NW 78TH AV;2151 NW 78TH AV;
2152;NW 78TH AV;MRGT;33063;;;;;;;121404;000006OSWG;R 2152.1 NW 78TH AV;2152 NW 78TH AV;
2181;NW 78TH AV;MRGT;33063;;;;;;;121404;000006P5LY;F 2151 NW 78TH AV;2181 NW 78TH AV;
2182;NW 78TH AV;MRGT;33063;;;;;;;121404;000006OU8R;R 2212 NW 78TH AV;2182 NW 78TH AV;
2211;NW 78TH AV;MRGT;33063;;;;;;;121404;000006P0QU;F 2211 NW 78TH AV;2211 NW 78TH AV;
2212;NW 78TH AV;MRGT;33063;;;;;;;121404;000006OVQG;R 2212 NW 78TH AV;2212 NW 78TH AV;
2241;NW 78TH AV;MRGT;33063;;;;;;;121404;000006PCRM;F 7771 NW 23RD ST;2241 NW 78TH AV;
2242;NW 78TH AV;MRGT;33063;;;;;;;121404;000006OYTB;R 2242 NW 78TH AV;2242 NW 78TH AV;
2271;NW 78TH AV;MRGT;33063;;;;;;;121404;000006OULX;F 2271 NW 78TH AV;2271 NW 78TH AV;
2101;ROCK ISLAND RD;MRGT;33063;;;;;;;121404;000006PF3J;F 2101 ROCK ISLAND RD;2101 ROCK ISLAND RD;
2115;ROCK ISLAND RD;MRGT;33063;;;;;;;121404;000006P45S;F 2129 ROCK ISLAND RD;2115 ROCK ISLAND RD;
2129;ROCK ISLAND RD;MRGT;33063;;;;;;;121404;000006P1DD;F 2129 ROCK ISLAND RD;2129 ROCK ISLAND RD;
2143;ROCK ISLAND RD;MRGT;33063;;;;;;;121404;000006OSW0;F 2143 ROCK ISLAND RD;2143 ROCK ISLAND RD;
2157;ROCK ISLAND RD;MRGT;33063;;;;;;;121404;000006OY5G;F 2143 ROCK ISLAND RD;2157 ROCK ISLAND RD;
2171;ROCK ISLAND RD;MRGT;33063;;;;;;;121404;000006PDW7;F 2171 ROCK ISLAND RD;2171 ROCK ISLAND RD;
2185;ROCK ISLAND RD;MRGT;33063;;;;;;;121404;000006OSY7;F 2171 ROCK ISLAND RD;2185 ROCK ISLAND RD;
2199;ROCK ISLAND RD;MRGT;33063;;;;;;;121404;000006OV3K;F 2199 ROCK ISLAND RD;2199 ROCK ISLAND RD;
2213;ROCK ISLAND RD;MRGT;33063;;;;;;;121404;000006PEKZ;F 2213 ROCK ISLAND RD;2213 ROCK ISLAND RD;
2227;ROCK ISLAND RD;MRGT;33063;;;;;;;121404;000006P69W;F 2213 ROCK ISLAND RD;2227 ROCK ISLAND RD;
2241;ROCK ISLAND RD;MRGT;33063;;;;;;;121404;000006PB40;F 2255 ROCK ISLAND RD;2241 ROCK ISLAND RD;
2255;ROCK ISLAND RD;MRGT;33063;;;;;;;121404;000006ORV4;F 2255 ROCK ISLAND RD;2255 ROCK ISLAND RD;
2269;ROCK ISLAND RD;MRGT;33063;;;;;;;121404;000006PDXT;F 2269 ROCK ISLAND RD;2269 ROCK ISLAND RD;
2283;ROCK ISLAND RD;MRGT;33063;;;;;;;121404;000006P7I8;F 2269 ROCK ISLAND RD;2283 ROCK ISLAND RD;
2297;ROCK ISLAND RD;MRGT;33063;;;;;;;121404;000006OSWU;F 2297 ROCK ISLAND RD;2297 ROCK ISLAND RD;
7205;ROYAL PALM BLVD;MRGT;33063;APT;RR;;;;;121404;000006ORJT;7205 ROYAL PALM BLVD;7205 ROYAL PALM BLVD APT RR;
7205;ROYAL PALM BLVD;MRGT;33063;;;;;;;121404;000006P30X;7205 ROYAL PALM BLVD;7205 ROYAL PALM BLVD;
7303;ROYAL PALM BLVD;MRGT;33063;;;;;;;121404;000006OX8F;R 7302 NW 21ST ST;7303 ROYAL PALM BLVD;
7329;ROYAL PALM BLVD;MRGT;33063;;;;;;;121404;000006OWN6;R 7302 NW 21ST ST;7329 ROYAL PALM BLVD;
7355;ROYAL PALM BLVD;MRGT;33063;;;;;;;121404;000006PF6N;R 7354 NW 21ST ST;7355 ROYAL PALM BLVD;
7381;ROYAL PALM BLVD;MRGT;33063;;;;;;;121404;000006P11X;R 7354 NW 21ST ST;7381 ROYAL PALM BLVD;
7407;ROYAL PALM BLVD;MRGT;33063;;;;;;;121404;000006P70I;R 7406 NW 21ST ST;7407 ROYAL PALM BLVD;
7432;ROYAL PALM BLVD;MRGT;33063;;;;;;;121404;000006P9DU;MR 7450 ROYAL PALM BLVD;7432 ROYAL PALM BLVD;
7433;ROYAL PALM BLVD;MRGT;33063;;;;;;;121404;000006P3BS;R 7406 NW 21ST ST;7433 ROYAL PALM BLVD;
7436;ROYAL PALM BLVD;MRGT;33063;;;;;;;121404;000006PDCM;MR 7450 ROYAL PALM BLVD;7436 ROYAL PALM BLVD;Y
7438;ROYAL PALM BLVD;MRGT;33063;RM;COMP;FLR;1;;;121404;000006OS1B;MR 7450 ROYAL PALM BLVD;7438 ROYAL PALM BLVD RM COMP FLR 1;
7438;ROYAL PALM BLVD;MRGT;33063;;;;;;;121404;000006P2TL;MR 7450 ROYAL PALM BLVD;7438 ROYAL PALM BLVD;Y
7442;ROYAL PALM BLVD;MRGT;33063;;;;;;;121404;000006OT75;MR 7450 ROYAL PALM BLVD;7442 ROYAL PALM BLVD;
7444;ROYAL PALM BLVD;MRGT;33063;;;;;;;121404;000006P9Y0;MR 7450 ROYAL PALM BLVD;7444 ROYAL PALM BLVD;
7446;ROYAL PALM BLVD;MRGT;33063;;;;;;;121404;000006OZCV;MR 7450 ROYAL PALM BLVD;7446 ROYAL PALM BLVD;
7448;ROYAL PALM BLVD;MRGT;33063;;;;;;;121404;000006P3KM;MR 7450 ROYAL PALM BLVD;7448 ROYAL PALM BLVD;
7450;ROYAL PALM BLVD;MRGT;33063;;;;;;;121404;000006P0FA;MR 7450 ROYAL PALM BLVD;7450 ROYAL PALM BLVD;
7454;ROYAL PALM BLVD;MRGT;33063;;;;;;;121404;000006P2VI;MR 7450 ROYAL PALM BLVD;7454 ROYAL PALM BLVD;
7456;ROYAL PALM BLVD;MRGT;33063;;;;;;;121404;000006P1CU;MR 7450 ROYAL PALM BLVD;7456 ROYAL PALM BLVD;
7458;ROYAL PALM BLVD;MRGT;33063;;;;;;;121404;000006OSJG;MR 7450 ROYAL PALM BLVD;7458 ROYAL PALM BLVD;
7459;ROYAL PALM BLVD;MRGT;33063;;;;;;;121404;000006P3FP;R 7458 NW 21ST ST;7459 ROYAL PALM BLVD;
7460;ROYAL PALM BLVD;MRGT;33063;;;;;;;121404;000006OQ2L;MR 7450 ROYAL PALM BLVD;7460 ROYAL PALM BLVD;
7462;ROYAL PALM BLVD;MRGT;33063;;;;;;;121404;000006P4JO;MR 7450 ROYAL PALM BLVD;7462 ROYAL PALM BLVD;
7465;ROYAL PALM BLVD;MRGT;33063;;;;;;;121404;000105R700;R 7458 NW 21ST ST;7465 ROYAL PALM BLVD;
7485;ROYAL PALM BLVD;MRGT;33063;;;;;;;121404;000006P849;R 7485 ROYAL PALM BLVD;7485 ROYAL PALM BLVD;
7505;ROYAL PALM BLVD;MRGT;33063;RM;RESTRM;;;;;121404;000006OX7R;7205 ROYAL PALM BLVD;7505 ROYAL PALM BLVD RM RESTRM;
7511;ROYAL PALM BLVD;MRGT;33063;;;;;;;121404;000006OQOG;R 7510 NW 21ST ST;7511 ROYAL PALM BLVD;
7537;ROYAL PALM BLVD;MRGT;33063;;;;;;;121404;000006P0KM;R 7510 NW 21ST ST;7537 ROYAL PALM BLVD;
7563;ROYAL PALM BLVD;MRGT;33063;;;;;;;121404;000006P0BI;R 7562 NW 21ST ST;7563 ROYAL PALM BLVD;
7589;ROYAL PALM BLVD;MRGT;33063;;;;;;;121404;000006PCVI;R 7562 NW 21ST ST;7589 ROYAL PALM BLVD;
7611;ROYAL PALM BLVD;MRGT;33063;UNIT;CEV;;;;;121404;000006P4ZK;RLA 7611 ROYAL PALM BLVD;7611 ROYAL PALM BLVD UNIT CEV;Y
7611;ROYAL PALM BLVD;MRGT;33063;UNIT;MUX;;;;;121404;000006P2DH;MUX 7611 ROYAL PALM BLVD;7611 ROYAL PALM BLVD UNIT MUX;
7611;ROYAL PALM BLVD;MRGT;33063;UNIT;RLA;;;;;121404;000006P7GL;RLA 7611 ROYAL PALM BLVD;7611 ROYAL PALM BLVD UNIT RLA;
7611;ROYAL PALM BLVD;MRGT;33063;;;;;;;121404;000006P0SH;RLA 7611 ROYAL PALM BLVD;7611 ROYAL PALM BLVD;
